{"type":"FeatureCollection","features":[{"type":"Feature","id":"bs-amararaja","geometry":{"type":"Point","coordinates":[79.02734,13.20599]},"properties":{"id":"bs-amararaja","kind":"bulk-substation","name":"Amararaja","voltage":132,"ssType":"Private","connectedSs":"132KV NOONEGUNDLAPALLI SS","mva":38,"circle":"Tirupathi","district":null,"lng":79.02734,"lat":13.20599}},{"type":"Feature","id":"bs-amararaja-batteries","geometry":{"type":"Point","coordinates":[79.50636,13.67319]},"properties":{"id":"bs-amararaja-batteries","kind":"bulk-substation","name":"Amararaja Batteries","voltage":132,"ssType":"Private","connectedSs":"220KV RENIGUNTA SS","mva":26,"circle":"Tirupathi","district":null,"lng":79.50636,"lat":13.67319}},{"type":"Feature","id":"bs-andhra-cements","geometry":{"type":"Point","coordinates":[79.70034,16.64429]},"properties":{"id":"bs-andhra-cements","kind":"bulk-substation","name":"Andhra Cements","voltage":132,"ssType":"Private","connectedSs":"220KV PIDUGURALLA SS","mva":25,"circle":"Guntur","district":null,"lng":79.70034,"lat":16.64429}},{"type":"Feature","id":"bs-acc","geometry":{"type":"Point","coordinates":[83.19598,17.76302]},"properties":{"id":"bs-acc","kind":"bulk-substation","name":"ACC","voltage":132,"ssType":"Private","connectedSs":"132KV SIMHACHALAM SS","mva":5,"circle":"Visakhapatnam","district":null,"lng":83.19598,"lat":17.76302}},{"type":"Feature","id":"bs-andhra-ferro","geometry":{"type":"Point","coordinates":[83.46878,18.35489]},"properties":{"id":"bs-andhra-ferro","kind":"bulk-substation","name":"Andhra Ferro","voltage":132,"ssType":"Private","connectedSs":"220KV GARIVIDI SS","mva":18.5,"circle":"Vizianagaram","district":null,"lng":83.46878,"lat":18.35489}},{"type":"Feature","id":"bs-jfal-anjaneya-ferro","geometry":{"type":"Point","coordinates":[83.4812,18.32499]},"properties":{"id":"bs-jfal-anjaneya-ferro","kind":"bulk-substation","name":"JFAL (Anjaneya ferro)","voltage":132,"ssType":"Private","connectedSs":"220KV GARIVIDI SS","mva":55,"circle":"Vizianagaram","district":null,"lng":83.4812,"lat":18.32499}},{"type":"Feature","id":"bs-apcl","geometry":{"type":"Point","coordinates":[83.24992,17.70201]},"properties":{"id":"bs-apcl","kind":"bulk-substation","name":"APCL","voltage":132,"ssType":"Private","connectedSs":"132KV NAVAL WHARF SS","mva":6,"circle":"Visakhapatnam","district":null,"lng":83.24992,"lat":17.70201}},{"type":"Feature","id":"bs-andhra-sugars","geometry":{"type":"Point","coordinates":[81.6159,17.18095]},"properties":{"id":"bs-andhra-sugars","kind":"bulk-substation","name":"Andhra Sugars","voltage":132,"ssType":"Private","connectedSs":"132KV KOVVURU SS","mva":3,"circle":"Eluru","district":null,"lng":81.6159,"lat":17.18095}},{"type":"Feature","id":"bs-ap-paper","geometry":{"type":"Point","coordinates":[81.77187,17.02778]},"properties":{"id":"bs-ap-paper","kind":"bulk-substation","name":"AP paper","voltage":132,"ssType":"Private","connectedSs":"132KV SS MALLAYAPETA","mva":5,"circle":"Rajamahendravaram","district":null,"lng":81.77187,"lat":17.02778}},{"type":"Feature","id":"bs-aurobindho-pharma","geometry":{"type":"Point","coordinates":[83.62144,18.13739]},"properties":{"id":"bs-aurobindho-pharma","kind":"bulk-substation","name":"Aurobindho Pharma","voltage":132,"ssType":"Private","connectedSs":"132KV PYDIBHIMAVARAM SS","mva":25,"circle":"Srikakulam","district":null,"lng":83.62144,"lat":18.13739}},{"type":"Feature","id":"bs-barc","geometry":{"type":"Point","coordinates":[83.01063,17.52682]},"properties":{"id":"bs-barc","kind":"bulk-substation","name":"BARC","voltage":132,"ssType":"Private","connectedSs":"220KV BRANDIX SS","mva":0,"circle":"Visakhapatnam","district":null,"lng":83.01063,"lat":17.52682}},{"type":"Feature","id":"bs-berry-alloys","geometry":{"type":"Point","coordinates":[83.34448,18.53933]},"properties":{"id":"bs-berry-alloys","kind":"bulk-substation","name":"Berry alloys","voltage":132,"ssType":"Private","connectedSs":"220KV BOBBILI GROWTH CENTRE SS","mva":83.5,"circle":"Vizianagaram","district":null,"lng":83.34448,"lat":18.53933}},{"type":"Feature","id":"bs-bael","geometry":{"type":"Point","coordinates":[78.03404,15.78115]},"properties":{"id":"bs-bael","kind":"bulk-substation","name":"BAEL","voltage":132,"ssType":"Private","connectedSs":"220KV A.P.CARBIDES SS","mva":0,"circle":"Kurnool","district":null,"lng":78.03404,"lat":15.78115}},{"type":"Feature","id":"bs-cccpl","geometry":{"type":"Point","coordinates":[79.76464,16.5435]},"properties":{"id":"bs-cccpl","kind":"bulk-substation","name":"CCCPL","voltage":132,"ssType":"Private","connectedSs":"220KV RENTACHINTALA SS","mva":25,"circle":"Guntur","district":null,"lng":79.76464,"lat":16.5435}},{"type":"Feature","id":"bs-coramandal","geometry":{"type":"Point","coordinates":[82.2687,16.9867]},"properties":{"id":"bs-coramandal","kind":"bulk-substation","name":"Coramandal","voltage":132,"ssType":"Private","connectedSs":"132KV SILK ROAD SUGARS. SS","mva":10,"circle":"Rajamahendravaram","district":null,"lng":82.2687,"lat":16.9867}},{"type":"Feature","id":"bs-dhalmiya-cement","geometry":{"type":"Point","coordinates":[78.34125,14.92793]},"properties":{"id":"bs-dhalmiya-cement","kind":"bulk-substation","name":"Dhalmiya Cement","voltage":132,"ssType":"Private","connectedSs":"132KV JAMMALAMADUGU SS","mva":0,"circle":"Kadapa","district":null,"lng":78.34125,"lat":14.92793}},{"type":"Feature","id":"bs-divis","geometry":{"type":"Point","coordinates":[83.47769,17.93558]},"properties":{"id":"bs-divis","kind":"bulk-substation","name":"Divis","voltage":132,"ssType":"Private","connectedSs":"132KV ANANDAPURAM SS","mva":35,"circle":"Visakhapatnam","district":null,"lng":83.47769,"lat":17.93558}},{"type":"Feature","id":"bs-emjay-steels","geometry":{"type":"Point","coordinates":[79.89652,13.96627]},"properties":{"id":"bs-emjay-steels","kind":"bulk-substation","name":"EMJAY Steels","voltage":132,"ssType":"Private","connectedSs":"132KV NAIDUPET SS","mva":6,"circle":"Nellore","district":null,"lng":79.89652,"lat":13.96627}},{"type":"Feature","id":"bs-empee-sugars","geometry":{"type":"Point","coordinates":[79.89376,13.95788]},"properties":{"id":"bs-empee-sugars","kind":"bulk-substation","name":"Empee Sugars","voltage":132,"ssType":"Private","connectedSs":"132KV NAIDUPET SS","mva":1.2,"circle":"Nellore","district":null,"lng":79.89376,"lat":13.95788}},{"type":"Feature","id":"bs-essar","geometry":{"type":"Point","coordinates":[83.27352,17.71745]},"properties":{"id":"bs-essar","kind":"bulk-substation","name":"ESSAR","voltage":132,"ssType":"Private","connectedSs":"132KV NAVAL WHARF SS","mva":30,"circle":"Visakhapatnam","district":null,"lng":83.27352,"lat":17.71745}},{"type":"Feature","id":"bs-facor-alloys","geometry":{"type":"Point","coordinates":[83.5353,18.27767]},"properties":{"id":"bs-facor-alloys","kind":"bulk-substation","name":"Facor Alloys","voltage":132,"ssType":"Private","connectedSs":"220KVÂ GARIVIDI SS","mva":45,"circle":"Vizianagaram","district":null,"lng":83.5353,"lat":18.27767}},{"type":"Feature","id":"bs-gerudau-steels","geometry":{"type":"Point","coordinates":[78.04241,14.87988]},"properties":{"id":"bs-gerudau-steels","kind":"bulk-substation","name":"Gerudau steels","voltage":132,"ssType":"Private","connectedSs":"220KV TADIPATRI SS","mva":0,"circle":"Anantapur","district":null,"lng":78.04241,"lat":14.87988}},{"type":"Feature","id":"bs-gr-textiles","geometry":{"type":"Point","coordinates":[78.2311,14.44918]},"properties":{"id":"bs-gr-textiles","kind":"bulk-substation","name":"GR Textiles","voltage":132,"ssType":"Private","connectedSs":"220KV PULIVENDULA SS","mva":0,"circle":"Kadapa","district":null,"lng":78.2311,"lat":14.44918}},{"type":"Feature","id":"bs-greentech","geometry":{"type":"Point","coordinates":[79.81013,13.92155]},"properties":{"id":"bs-greentech","kind":"bulk-substation","name":"Greentech","voltage":132,"ssType":"Private","connectedSs":"132KV MEENAKUR SS","mva":20,"circle":"Nellore","district":null,"lng":79.81013,"lat":13.92155}},{"type":"Feature","id":"bs-grindwelnorton","geometry":{"type":"Point","coordinates":[79.51397,13.69235]},"properties":{"id":"bs-grindwelnorton","kind":"bulk-substation","name":"Grindwelnorton","voltage":132,"ssType":"Private","connectedSs":"220KV RENIGUNTA SS","mva":1.5,"circle":"Tirupathi","district":null,"lng":79.51397,"lat":13.69235}},{"type":"Feature","id":"bs-hsl","geometry":{"type":"Point","coordinates":[83.27276,17.68579]},"properties":{"id":"bs-hsl","kind":"bulk-substation","name":"HSL","voltage":132,"ssType":"Private","connectedSs":"132KV NAVAL WHARF SS","mva":3.5,"circle":"Visakhapatnam","district":null,"lng":83.27276,"lat":17.68579}},{"type":"Feature","id":"bs-hngil","geometry":{"type":"Point","coordinates":[79.8257,13.92516]},"properties":{"id":"bs-hngil","kind":"bulk-substation","name":"HNGIL","voltage":132,"ssType":"Private","connectedSs":"132KV MEENAKUR SS","mva":9,"circle":"Nellore","district":null,"lng":79.8257,"lat":13.92516}},{"type":"Feature","id":"bs-hpcl","geometry":{"type":"Point","coordinates":[83.24162,17.69934]},"properties":{"id":"bs-hpcl","kind":"bulk-substation","name":"HPCL","voltage":132,"ssType":"Private","connectedSs":"132KV NAVAL WHARF SS","mva":13,"circle":"Visakhapatnam","district":null,"lng":83.24162,"lat":17.69934}},{"type":"Feature","id":"bs-impex-metal","geometry":{"type":"Point","coordinates":[83.34561,18.53748]},"properties":{"id":"bs-impex-metal","kind":"bulk-substation","name":"Impex metal","voltage":132,"ssType":"Private","connectedSs":"220KV BOBBILI GROWTH CENTRE SS","mva":28,"circle":"Vizianagaram","district":null,"lng":83.34561,"lat":18.53748}},{"type":"Feature","id":"bs-india-cements","geometry":{"type":"Point","coordinates":[78.45876,14.66288]},"properties":{"id":"bs-india-cements","kind":"bulk-substation","name":"India Cements","voltage":132,"ssType":"Private","connectedSs":"220KV YERRAGUNTLA SS","mva":0,"circle":"Kadapa","district":null,"lng":78.45876,"lat":14.66288}},{"type":"Feature","id":"bs-india-cements-2","geometry":{"type":"Point","coordinates":[78.52874,14.64115]},"properties":{"id":"bs-india-cements-2","kind":"bulk-substation","name":"India Cements","voltage":132,"ssType":"Private","connectedSs":"220KV YERRAGUNTLA SS","mva":0,"circle":"Kadapa","district":null,"lng":78.52874,"lat":14.64115}},{"type":"Feature","id":"bs-kcp","geometry":{"type":"Point","coordinates":[79.43589,16.46691]},"properties":{"id":"bs-kcp","kind":"bulk-substation","name":"KCP","voltage":132,"ssType":"Private","connectedSs":"132KV MACHERLA SS","mva":8,"circle":"Guntur","district":null,"lng":79.43589,"lat":16.46691}},{"type":"Feature","id":"bs-maithan-alloys","geometry":{"type":"Point","coordinates":[83.00235,17.53817]},"properties":{"id":"bs-maithan-alloys","kind":"bulk-substation","name":"Maithan Alloys","voltage":132,"ssType":"Private","connectedSs":"220KV BRANDIX SS","mva":55,"circle":"Visakhapatnam","district":null,"lng":83.00235,"lat":17.53817}},{"type":"Feature","id":"bs-mondelez","geometry":{"type":"Point","coordinates":[79.99586,13.54672]},"properties":{"id":"bs-mondelez","kind":"bulk-substation","name":"Mondelez","voltage":132,"ssType":"Private","connectedSs":"132KV CHERIVI SS","mva":15.3,"circle":"Tirupathi","district":null,"lng":79.99586,"lat":13.54672}},{"type":"Feature","id":"bs-myhome","geometry":{"type":"Point","coordinates":[82.77491,17.5033]},"properties":{"id":"bs-myhome","kind":"bulk-substation","name":"MYHOME","voltage":132,"ssType":"Private","connectedSs":"132KV KORUPROLU SS","mva":12,"circle":"Visakhapatnam","district":null,"lng":82.77491,"lat":17.5033}},{"type":"Feature","id":"bs-nagarjuna-fertilizers","geometry":{"type":"Point","coordinates":[82.26618,16.97168]},"properties":{"id":"bs-nagarjuna-fertilizers","kind":"bulk-substation","name":"Nagarjuna Fertilizers","voltage":132,"ssType":"Private","connectedSs":"220KV KAKINADA SS","mva":6,"circle":"Rajamahendravaram","district":null,"lng":82.26618,"lat":16.97168}},{"type":"Feature","id":"bs-nava-bharat","geometry":{"type":"Point","coordinates":[82.22293,17.2185]},"properties":{"id":"bs-nava-bharat","kind":"bulk-substation","name":"Nava Bharat","voltage":132,"ssType":"Private","connectedSs":"132KV PRATHIPADU SS","mva":0.2,"circle":"Rajamahendravaram","district":null,"lng":82.22293,"lat":17.2185}},{"type":"Feature","id":"bs-ncs-sugars","geometry":{"type":"Point","coordinates":[83.37296,18.60459]},"properties":{"id":"bs-ncs-sugars","kind":"bulk-substation","name":"NCS Sugars","voltage":132,"ssType":"Private","connectedSs":"132KV BOBBILI SS","mva":1.5,"circle":"Vizianagaram","district":null,"lng":83.37296,"lat":18.60459}},{"type":"Feature","id":"bs-nelcast","geometry":{"type":"Point","coordinates":[79.8401,14.13309]},"properties":{"id":"bs-nelcast","kind":"bulk-substation","name":"Nelcast","voltage":132,"ssType":"Private","connectedSs":"132KV GUDUR SS","mva":15,"circle":"Nellore","district":null,"lng":79.8401,"lat":14.13309}},{"type":"Feature","id":"bs-pcil","geometry":{"type":"Point","coordinates":[79.50218,16.62314]},"properties":{"id":"bs-pcil","kind":"bulk-substation","name":"PCIL","voltage":132,"ssType":"Private","connectedSs":"220KV RENTACHINTALA SS","mva":15,"circle":"Guntur","district":null,"lng":79.50218,"lat":16.62314}},{"type":"Feature","id":"bs-parry-s","geometry":{"type":"Point","coordinates":[83.74082,18.55356]},"properties":{"id":"bs-parry-s","kind":"bulk-substation","name":"PARRY'S","voltage":132,"ssType":"Private","connectedSs":"132KV PALAKONDA SS","mva":1.9,"circle":"Srikakulam","district":null,"lng":83.74082,"lat":18.55356}},{"type":"Feature","id":"bs-pabr","geometry":{"type":"Point","coordinates":[77.2978,14.79192]},"properties":{"id":"bs-pabr","kind":"bulk-substation","name":"PABR","voltage":132,"ssType":"Private","connectedSs":"132KV TATICHERLA SS","mva":0,"circle":"Anantapur","district":null,"lng":77.2978,"lat":14.79192}},{"type":"Feature","id":"bs-penna","geometry":{"type":"Point","coordinates":[80.11449,14.27381]},"properties":{"id":"bs-penna","kind":"bulk-substation","name":"Penna","voltage":132,"ssType":"Private","connectedSs":"132KV BRAHMADEVAM SS","mva":10,"circle":"Nellore","district":null,"lng":80.11449,"lat":14.27381}},{"type":"Feature","id":"bs-prakash-ferros","geometry":{"type":"Point","coordinates":[79.62922,13.75745]},"properties":{"id":"bs-prakash-ferros","kind":"bulk-substation","name":"Prakash Ferros","voltage":132,"ssType":"Private","connectedSs":"400KVÂ RACHAGUNNERI SS","mva":28,"circle":"Tirupathi","district":null,"lng":79.62922,"lat":13.75745}},{"type":"Feature","id":"bs-rak-ceramics","geometry":{"type":"Point","coordinates":[82.14237,17.04025]},"properties":{"id":"bs-rak-ceramics","kind":"bulk-substation","name":"RAK Ceramics","voltage":132,"ssType":"Private","connectedSs":"220KV SAMALKOT SS","mva":8,"circle":"Rajamahendravaram","district":null,"lng":82.14237,"lat":17.04025}},{"type":"Feature","id":"bs-mcl","geometry":{"type":"Point","coordinates":[80.12408,16.87525]},"properties":{"id":"bs-mcl","kind":"bulk-substation","name":"MCL","voltage":132,"ssType":"Private","connectedSs":"220KV CHILLAKALLU SS","mva":0.5,"circle":"Vijayawada","district":null,"lng":80.12408,"lat":16.87525}},{"type":"Feature","id":"bs-ravali-spinners","geometry":{"type":"Point","coordinates":[81.76177,16.73672]},"properties":{"id":"bs-ravali-spinners","kind":"bulk-substation","name":"Ravali Spinners","voltage":132,"ssType":"Private","connectedSs":"132KV PENUGONDA SS 220KV NIDADAVOLE SS","mva":9.2,"circle":"Eluru","district":null,"lng":81.76177,"lat":16.73672}},{"type":"Feature","id":"bs-richmond-power","geometry":{"type":"Point","coordinates":[83.54311,18.26926]},"properties":{"id":"bs-richmond-power","kind":"bulk-substation","name":"Richmond Power","voltage":132,"ssType":"Private","connectedSs":"132KV MOR SS","mva":0.9,"circle":"Vizianagaram","district":null,"lng":83.54311,"lat":18.26926}},{"type":"Feature","id":"bs-sagar-cements","geometry":{"type":"Point","coordinates":[77.98203,15.07431]},"properties":{"id":"bs-sagar-cements","kind":"bulk-substation","name":"Sagar Cements","voltage":132,"ssType":"Private","connectedSs":"132KVSWS GUDIPADU","mva":0,"circle":"Anantapur","district":null,"lng":77.98203,"lat":15.07431}},{"type":"Feature","id":"bs-sagar-sugars","geometry":{"type":"Point","coordinates":[79.39309,13.32515]},"properties":{"id":"bs-sagar-sugars","kind":"bulk-substation","name":"SAGAR SUGARS","voltage":132,"ssType":"Private","connectedSs":"132KV KOTHAPALLI MITTA SS","mva":0,"circle":"Tirupathi","district":null,"lng":79.39309,"lat":13.32515}},{"type":"Feature","id":"bs-sanvira","geometry":{"type":"Point","coordinates":[82.98399,17.48562]},"properties":{"id":"bs-sanvira","kind":"bulk-substation","name":"Sanvira","voltage":132,"ssType":"Private","connectedSs":"220KV BRANDIX SS","mva":1,"circle":"Visakhapatnam","district":null,"lng":82.98399,"lat":17.48562}},{"type":"Feature","id":"bs-sei","geometry":{"type":"Point","coordinates":[79.58715,14.49415]},"properties":{"id":"bs-sei","kind":"bulk-substation","name":"SEI","voltage":132,"ssType":"Private","connectedSs":"132KV ADURUPALLI SS","mva":0,"circle":"Nellore","district":null,"lng":79.58715,"lat":14.49415}},{"type":"Feature","id":"bs-snam-alloys","geometry":{"type":"Point","coordinates":[79.06423,13.45061]},"properties":{"id":"bs-snam-alloys","kind":"bulk-substation","name":"SNAM ALLOYS","voltage":132,"ssType":"Private","connectedSs":"132KV PAKALA SS","mva":18,"circle":"Tirupathi","district":null,"lng":79.06423,"lat":13.45061}},{"type":"Feature","id":"bs-sree-jayajoti-cements","geometry":{"type":"Point","coordinates":[78.21543,15.36665]},"properties":{"id":"bs-sree-jayajoti-cements","kind":"bulk-substation","name":"Sree Jayajoti Cements","voltage":132,"ssType":"Private","connectedSs":"132KV BANAGANAPALLI SS","mva":12,"circle":"Kurnool","district":null,"lng":78.21543,"lat":15.36665}},{"type":"Feature","id":"bs-srpm","geometry":{"type":"Point","coordinates":[78.0721,15.8382]},"properties":{"id":"bs-srpm","kind":"bulk-substation","name":"SRPM","voltage":132,"ssType":"Private","connectedSs":"220KV A.P.CARBIDES SS","mva":0,"circle":"Kurnool","district":null,"lng":78.0721,"lat":15.8382}},{"type":"Feature","id":"bs-sarvaraya-sugars","geometry":{"type":"Point","coordinates":[81.9965,16.83398]},"properties":{"id":"bs-sarvaraya-sugars","kind":"bulk-substation","name":"Sarvaraya Sugars","voltage":132,"ssType":"Private","connectedSs":"132KV RAMACHANDRAPURAM SS","mva":1.5,"circle":"Rajamahendravaram","district":null,"lng":81.9965,"lat":16.83398}},{"type":"Feature","id":"bs-sriba","geometry":{"type":"Point","coordinates":[81.1648,16.46936]},"properties":{"id":"bs-sriba","kind":"bulk-substation","name":"SRIBA","voltage":132,"ssType":"Private","connectedSs":"132KV CHIGURUKOTA SS","mva":0,"circle":"Vijayawada","district":null,"lng":81.1648,"lat":16.46936}},{"type":"Feature","id":"bs-sundaram-alloys","geometry":{"type":"Point","coordinates":[82.95956,17.518]},"properties":{"id":"bs-sundaram-alloys","kind":"bulk-substation","name":"Sundaram Alloys","voltage":132,"ssType":"Private","connectedSs":"220KV BRANDIX SS","mva":40,"circle":"Visakhapatnam","district":null,"lng":82.95956,"lat":17.518}},{"type":"Feature","id":"bs-jeypore-sugars","geometry":{"type":"Point","coordinates":[81.66805,17.00193]},"properties":{"id":"bs-jeypore-sugars","kind":"bulk-substation","name":"Jeypore Sugars","voltage":132,"ssType":"Private","connectedSs":"220KV Naidupeta SS SS","mva":0,"circle":"Eluru","district":null,"lng":81.66805,"lat":17.00193}},{"type":"Feature","id":"bs-ramco","geometry":{"type":"Point","coordinates":[82.89112,17.61571]},"properties":{"id":"bs-ramco","kind":"bulk-substation","name":"RAMCO","voltage":132,"ssType":"Private","connectedSs":"132KV NARASINGABILLI SS","mva":13,"circle":"Visakhapatnam","district":null,"lng":82.89112,"lat":17.61571}},{"type":"Feature","id":"bs-hetero","geometry":{"type":"Point","coordinates":[78.18082,14.88803]},"properties":{"id":"bs-hetero","kind":"bulk-substation","name":"Hetero","voltage":132,"ssType":"Private","connectedSs":"220KV TIRUMULAYAPALLI SS","mva":0,"circle":"Kadapa","district":null,"lng":78.18082,"lat":14.88803}},{"type":"Feature","id":"bs-jaypee-cements","geometry":{"type":"Point","coordinates":[80.01845,16.87164]},"properties":{"id":"bs-jaypee-cements","kind":"bulk-substation","name":"Jaypee cements","voltage":132,"ssType":"Private","connectedSs":"220KV CHILLAKALLU SS","mva":15,"circle":"Vijayawada","district":null,"lng":80.01845,"lat":16.87164}},{"type":"Feature","id":"bs-ucil","geometry":{"type":"Point","coordinates":[78.26698,14.31872]},"properties":{"id":"bs-ucil","kind":"bulk-substation","name":"UCIL","voltage":132,"ssType":"Private","connectedSs":"132KV PULIVENDULA SS","mva":0,"circle":"Kadapa","district":null,"lng":78.26698,"lat":14.31872}},{"type":"Feature","id":"bs-agarwal-foundries","geometry":{"type":"Point","coordinates":[79.87606,13.87585]},"properties":{"id":"bs-agarwal-foundries","kind":"bulk-substation","name":"Agarwal Foundries","voltage":132,"ssType":"Private","connectedSs":"132KV NAIDUPET SS","mva":28,"circle":"Nellore","district":null,"lng":79.87606,"lat":13.87585}},{"type":"Feature","id":"bs-vrk-sugars","geometry":{"type":"Point","coordinates":[81.42049,17.03987]},"properties":{"id":"bs-vrk-sugars","kind":"bulk-substation","name":"VRK Sugars","voltage":132,"ssType":"Private","connectedSs":"132KV NALLAJERLA SS","mva":0,"circle":"Eluru","district":null,"lng":81.42049,"lat":17.03987}},{"type":"Feature","id":"bs-zuari-cements","geometry":{"type":"Point","coordinates":[78.51959,14.60303]},"properties":{"id":"bs-zuari-cements","kind":"bulk-substation","name":"Zuari Cements","voltage":132,"ssType":"Private","connectedSs":"220KV YERRAGUNTLA SS","mva":0,"circle":"Kadapa","district":null,"lng":78.51959,"lat":14.60303}},{"type":"Feature","id":"bs-beluguppa","geometry":{"type":"Point","coordinates":[77.14889,14.72138]},"properties":{"id":"bs-beluguppa","kind":"bulk-substation","name":"Beluguppa","voltage":220,"ssType":"Private","connectedSs":"400KV URAVAKONDA SS","mva":0,"circle":"Anantapur","district":null,"lng":77.14889,"lat":14.72138}},{"type":"Feature","id":"bs-gmr","geometry":{"type":"Point","coordinates":[82.27141,16.9493]},"properties":{"id":"bs-gmr","kind":"bulk-substation","name":"GMR","voltage":220,"ssType":"Private","connectedSs":"220KV SAMALKOT SS","mva":0.7,"circle":"Rajamahendravaram","district":null,"lng":82.27141,"lat":16.9493}},{"type":"Feature","id":"bs-donkarayi","geometry":{"type":"Point","coordinates":[81.80953,17.9333]},"properties":{"id":"bs-donkarayi","kind":"bulk-substation","name":"Donkarayi","voltage":220,"ssType":"Private","connectedSs":"220KV Upper Sileru and Lower Sileru","mva":0,"circle":"Rajamahendravaram","district":null,"lng":81.80953,"lat":17.9333}},{"type":"Feature","id":"bs-animala","geometry":{"type":"Point","coordinates":[78.50736,14.48711]},"properties":{"id":"bs-animala","kind":"bulk-substation","name":"Animala","voltage":220,"ssType":"Private","connectedSs":"220KV Jammalamadugu[400] and Chakrayapeta","mva":0,"circle":"Kadapa","district":null,"lng":78.50736,"lat":14.48711}},{"type":"Feature","id":"bs-hero","geometry":{"type":"Point","coordinates":[77.19013,14.39857]},"properties":{"id":"bs-hero","kind":"bulk-substation","name":"HERO","voltage":220,"ssType":"Private","connectedSs":"220KV BORAMPALLI SS","mva":0,"circle":"Anantapur","district":null,"lng":77.19013,"lat":14.39857}},{"type":"Feature","id":"bs-kadavakallu-pooling-station","geometry":{"type":"Point","coordinates":[77.98243,14.71718]},"properties":{"id":"bs-kadavakallu-pooling-station","kind":"bulk-substation","name":"Kadavakallu Pooling Station","voltage":220,"ssType":"Private","connectedSs":"220KV TADIPATRI SS","mva":0,"circle":"Anantapur","district":null,"lng":77.98243,"lat":14.71718}},{"type":"Feature","id":"bs-kia","geometry":{"type":"Point","coordinates":[77.62516,14.16994]},"properties":{"id":"bs-kia","kind":"bulk-substation","name":"KIA","voltage":220,"ssType":"Private","connectedSs":"220KV BOKSAMPALLI SS 220KV SUBBARAYANAPALLI SS","mva":0,"circle":"Anantapur","district":null,"lng":77.62516,"lat":14.16994}},{"type":"Feature","id":"bs-nimbagallu","geometry":{"type":"Point","coordinates":[77.20255,14.87265]},"properties":{"id":"bs-nimbagallu","kind":"bulk-substation","name":"Nimbagallu","voltage":220,"ssType":"Private","connectedSs":"400KV URAVAKONDA SS","mva":0,"circle":"Anantapur","district":null,"lng":77.20255,"lat":14.87265}},{"type":"Feature","id":"bs-pattiseema","geometry":{"type":"Point","coordinates":[81.63424,17.22808]},"properties":{"id":"bs-pattiseema","kind":"bulk-substation","name":"Pattiseema","voltage":220,"ssType":"Private","connectedSs":"400/220KV SS Giddigudem","mva":144.7,"circle":"Eluru","district":null,"lng":81.63424,"lat":17.22808}},{"type":"Feature","id":"bs-sbq-steels","geometry":{"type":"Point","coordinates":[79.98427,14.13738]},"properties":{"id":"bs-sbq-steels","kind":"bulk-substation","name":"SBQ Steels","voltage":220,"ssType":"Private","connectedSs":"400KV MANUBOLU SS","mva":2.5,"circle":"Nellore","district":null,"lng":79.98427,"lat":14.13738}},{"type":"Feature","id":"bs-spectrum","geometry":{"type":"Point","coordinates":[82.30861,17.06027]},"properties":{"id":"bs-spectrum","kind":"bulk-substation","name":"Spectrum","voltage":220,"ssType":"Private","connectedSs":"Not connected","mva":0,"circle":"Rajamahendravaram","district":null,"lng":82.30861,"lat":17.06027}},{"type":"Feature","id":"bs-ultratech","geometry":{"type":"Point","coordinates":[78.01225,15.02031]},"properties":{"id":"bs-ultratech","kind":"bulk-substation","name":"ULTRATECH","voltage":220,"ssType":"Private","connectedSs":"220KV GOOTY SS","mva":0,"circle":"Anantapur","district":null,"lng":78.01225,"lat":15.02031}},{"type":"Feature","id":"bs-abhijit-ferro-alloys","geometry":{"type":"Point","coordinates":[83.00573,17.53033]},"properties":{"id":"bs-abhijit-ferro-alloys","kind":"bulk-substation","name":"Abhijit Ferro Alloys","voltage":220,"ssType":"Private","connectedSs":"220KV BRANDIX SS","mva":153,"circle":"Visakhapatnam","district":null,"lng":83.00573,"lat":17.53033}},{"type":"Feature","id":"bs-alkalies","geometry":{"type":"Point","coordinates":[78.06621,15.84474]},"properties":{"id":"bs-alkalies","kind":"bulk-substation","name":"Alkalies","voltage":132,"ssType":"Private","connectedSs":"132KV KURNOOL SS","mva":85,"circle":"Kurnool","district":null,"lng":78.06621,"lat":15.84474}},{"type":"Feature","id":"bs-amararaja-2","geometry":{"type":"Point","coordinates":[78.98607,13.28612]},"properties":{"id":"bs-amararaja-2","kind":"bulk-substation","name":"Amararaja","voltage":132,"ssType":"Private","connectedSs":"132KV NOONEGUNDLAPALLI SS","mva":0.3,"circle":"Tirupathi","district":null,"lng":78.98607,"lat":13.28612}},{"type":"Feature","id":"bs-apollo-tyres","geometry":{"type":"Point","coordinates":[79.95762,13.53652]},"properties":{"id":"bs-apollo-tyres","kind":"bulk-substation","name":"Apollo Tyres","voltage":132,"ssType":"Private","connectedSs":"132KV CHERIVI SS","mva":20,"circle":"Tirupathi","district":null,"lng":79.95762,"lat":13.53652}},{"type":"Feature","id":"bs-brakes-india","geometry":{"type":"Point","coordinates":[79.81956,13.92892]},"properties":{"id":"bs-brakes-india","kind":"bulk-substation","name":"Brakes India","voltage":132,"ssType":"Private","connectedSs":"132KV MEENAKUR SS","mva":20,"circle":"Nellore","district":null,"lng":79.81956,"lat":13.92892}},{"type":"Feature","id":"bs-cfl","geometry":{"type":"Point","coordinates":[83.23217,17.69664]},"properties":{"id":"bs-cfl","kind":"bulk-substation","name":"CFL","voltage":132,"ssType":"Private","connectedSs":"220KV GAJUWAKA SS","mva":16,"circle":"Visakhapatnam","district":null,"lng":83.23217,"lat":17.69664}},{"type":"Feature","id":"bs-deccan-ferro-alloys","geometry":{"type":"Point","coordinates":[83.19009,17.85431]},"properties":{"id":"bs-deccan-ferro-alloys","kind":"bulk-substation","name":"Deccan Ferro Alloys","voltage":132,"ssType":"Private","connectedSs":"220KV SS Pendurthi","mva":18,"circle":"Vizianagaram","district":null,"lng":83.19009,"lat":17.85431}},{"type":"Feature","id":"bs-duddekunta","geometry":{"type":"Point","coordinates":[77.23407,14.6665]},"properties":{"id":"bs-duddekunta","kind":"bulk-substation","name":"Duddekunta","voltage":132,"ssType":"Private","connectedSs":"132KV ANKAMPALLI SS","mva":0,"circle":"Anantapur","district":null,"lng":77.23407,"lat":14.6665}},{"type":"Feature","id":"bs-girija","geometry":{"type":"Point","coordinates":[82.1204,17.06995]},"properties":{"id":"bs-girija","kind":"bulk-substation","name":"Girija","voltage":220,"ssType":"Private","connectedSs":"220KV SAMALKOT SS","mva":54,"circle":"Rajamahendravaram","district":null,"lng":82.1204,"lat":17.06995}},{"type":"Feature","id":"bs-grasim-industries","geometry":{"type":"Point","coordinates":[82.00598,16.98986]},"properties":{"id":"bs-grasim-industries","kind":"bulk-substation","name":"Grasim Industries","voltage":132,"ssType":"Private","connectedSs":"132KV BICCAVOLU SS","mva":42,"circle":"Rajamahendravaram","district":null,"lng":82.00598,"lat":16.98986}},{"type":"Feature","id":"bs-kcp-cements","geometry":{"type":"Point","coordinates":[80.06511,16.83647]},"properties":{"id":"bs-kcp-cements","kind":"bulk-substation","name":"KCP Cements","voltage":132,"ssType":"Private","connectedSs":"Telangana SS (Sitapuram)","mva":23,"circle":"Vijayawada","district":null,"lng":80.06511,"lat":16.83647}},{"type":"Feature","id":"bs-kondaveetivagu","geometry":{"type":"Point","coordinates":[80.59923,16.49746]},"properties":{"id":"bs-kondaveetivagu","kind":"bulk-substation","name":"Kondaveetivagu","voltage":132,"ssType":"Private","connectedSs":"132KV TADEPALLI SS","mva":25,"circle":"Guntur","district":null,"lng":80.59923,"lat":16.49746}},{"type":"Feature","id":"bs-lanco","geometry":{"type":"Point","coordinates":[80.55139,16.63793]},"properties":{"id":"bs-lanco","kind":"bulk-substation","name":"LANCO","voltage":220,"ssType":"Private","connectedSs":"220KV KONDAPALLI SS","mva":0,"circle":"Vijayawada","district":null,"lng":80.55139,"lat":16.63793}},{"type":"Feature","id":"bs-m-s-toray","geometry":{"type":"Point","coordinates":[79.98689,13.50473]},"properties":{"id":"bs-m-s-toray","kind":"bulk-substation","name":"M/s.Toray","voltage":132,"ssType":"Private","connectedSs":"132KV CHERIVI SS","mva":10,"circle":"Tirupathi","district":null,"lng":79.98689,"lat":13.50473}},{"type":"Feature","id":"bs-mangal-industries","geometry":{"type":"Point","coordinates":[79.0696,13.36868]},"properties":{"id":"bs-mangal-industries","kind":"bulk-substation","name":"Mangal Industries","voltage":132,"ssType":"Private","connectedSs":"132KV IRALA SS","mva":5.1,"circle":"Tirupathi","district":null,"lng":79.0696,"lat":13.36868}},{"type":"Feature","id":"bs-mohan-spin-text","geometry":{"type":"Point","coordinates":[80.90794,16.66211]},"properties":{"id":"bs-mohan-spin-text","kind":"bulk-substation","name":"Mohan Spin Text.","voltage":132,"ssType":"Private","connectedSs":"132KV RANGANNAGUDEM SS","mva":13,"circle":"Vijayawada","district":null,"lng":80.90794,"lat":16.66211}},{"type":"Feature","id":"bs-naval-base","geometry":{"type":"Point","coordinates":[82.9018,17.45901]},"properties":{"id":"bs-naval-base","kind":"bulk-substation","name":"Naval base","voltage":132,"ssType":"Private","connectedSs":"220KV BRANDIX SS","mva":0,"circle":"Visakhapatnam","district":null,"lng":82.9018,"lat":17.45901}},{"type":"Feature","id":"bs-oswal","geometry":{"type":"Point","coordinates":[77.51699,13.73547]},"properties":{"id":"bs-oswal","kind":"bulk-substation","name":"Oswal","voltage":132,"ssType":"Private","connectedSs":"220 KV SS GOLLAPURAM","mva":0,"circle":"Anantapur","district":null,"lng":77.51699,"lat":13.73547}},{"type":"Feature","id":"bs-r-c-l","geometry":{"type":"Point","coordinates":[82.99763,17.52655]},"properties":{"id":"bs-r-c-l","kind":"bulk-substation","name":"R.C.L","voltage":132,"ssType":"Private","connectedSs":"220KV BRANDIX SS","mva":4.8,"circle":"Visakhapatnam","district":null,"lng":82.99763,"lat":17.52655}},{"type":"Feature","id":"bs-ramakrishna","geometry":{"type":"Point","coordinates":[77.51407,13.73819]},"properties":{"id":"bs-ramakrishna","kind":"bulk-substation","name":"Ramakrishna","voltage":132,"ssType":"Private","connectedSs":"220 KV SS GOLLAPURAM","mva":0,"circle":"Anantapur","district":null,"lng":77.51407,"lat":13.73819}},{"type":"Feature","id":"bs-ramco-cements","geometry":{"type":"Point","coordinates":[78.14832,15.07866]},"properties":{"id":"bs-ramco-cements","kind":"bulk-substation","name":"Ramco Cements","voltage":132,"ssType":"Private","connectedSs":"132KV ANKIREDDYPALLI SS","mva":20,"circle":"Kurnool","district":null,"lng":78.14832,"lat":15.07866}},{"type":"Feature","id":"bs-rhodium","geometry":{"type":"Point","coordinates":[77.51488,13.72293]},"properties":{"id":"bs-rhodium","kind":"bulk-substation","name":"Rhodium","voltage":132,"ssType":"Private","connectedSs":"220 KV SS GOLLAPURAM","mva":0,"circle":"Anantapur","district":null,"lng":77.51488,"lat":13.72293}},{"type":"Feature","id":"bs-rushil-decors","geometry":{"type":"Point","coordinates":[82.95198,17.51677]},"properties":{"id":"bs-rushil-decors","kind":"bulk-substation","name":"Rushil Decors","voltage":132,"ssType":"Private","connectedSs":"220KV BRANDIX SS","mva":12,"circle":"Visakhapatnam","district":null,"lng":82.95198,"lat":17.51677}},{"type":"Feature","id":"bs-rvnl","geometry":{"type":"Point","coordinates":[77.64831,15.14184]},"properties":{"id":"bs-rvnl","kind":"bulk-substation","name":"RVNL","voltage":220,"ssType":"Private","connectedSs":"220KVRTSS GOOTY","mva":0,"circle":"Anantapur","district":null,"lng":77.64831,"lat":15.14184}},{"type":"Feature","id":"bs-seai-arushi","geometry":{"type":"Point","coordinates":[78.07125,14.22414]},"properties":{"id":"bs-seai-arushi","kind":"bulk-substation","name":"SEAI Arushi","voltage":132,"ssType":"Private","connectedSs":"132KV KADIRI SS","mva":0,"circle":"Anantapur","district":null,"lng":78.07125,"lat":14.22414}},{"type":"Feature","id":"bs-suzlon","geometry":{"type":"Point","coordinates":[77.24671,14.81434]},"properties":{"id":"bs-suzlon","kind":"bulk-substation","name":"Suzlon","voltage":220,"ssType":"Private","connectedSs":"400KV URAVAKONDA SS","mva":0,"circle":"Anantapur","district":null,"lng":77.24671,"lat":14.81434}},{"type":"Feature","id":"bs-tadipatri-penna-tap-line","geometry":{"type":"Point","coordinates":[78.07515,14.95075]},"properties":{"id":"bs-tadipatri-penna-tap-line","kind":"bulk-substation","name":"Tadipatri Penna Tap Line","voltage":132,"ssType":"Private","connectedSs":"220KVÂ KONDAPURAM SS","mva":0,"circle":"Anantapur","district":null,"lng":78.07515,"lat":14.95075}},{"type":"Feature","id":"bs-thagguparthy","geometry":{"type":"Point","coordinates":[77.2243,14.75123]},"properties":{"id":"bs-thagguparthy","kind":"bulk-substation","name":"Thagguparthy","voltage":132,"ssType":"Private","connectedSs":"220KV KALYANDURG SS","mva":0,"circle":"Anantapur","district":null,"lng":77.2243,"lat":14.75123}},{"type":"Feature","id":"bs-zinc","geometry":{"type":"Point","coordinates":[83.21369,17.69599]},"properties":{"id":"bs-zinc","kind":"bulk-substation","name":"Zinc","voltage":132,"ssType":"Private","connectedSs":"220KV GAJUWAKA SS","mva":0,"circle":"Visakhapatnam","district":null,"lng":83.21369,"lat":17.69599}},{"type":"Feature","id":"bs-mrs","geometry":{"type":"Point","coordinates":[83.1674,17.62452]},"properties":{"id":"bs-mrs","kind":"bulk-substation","name":"MRS","voltage":220,"ssType":"Private","connectedSs":"220KV VSS SS","mva":0,"circle":"Visakhapatnam","district":null,"lng":83.1674,"lat":17.62452}},{"type":"Feature","id":"bs-smal","geometry":{"type":"Point","coordinates":[83.22045,17.94442]},"properties":{"id":"bs-smal","kind":"bulk-substation","name":"SMAL","voltage":220,"ssType":"Private","connectedSs":"220KV SS Bhimannadorapalem","mva":2.5,"circle":"Vizianagaram","district":null,"lng":83.22045,"lat":17.94442}},{"type":"Feature","id":"bs-vinirma","geometry":{"type":"Point","coordinates":[79.02354,14.85997]},"properties":{"id":"bs-vinirma","kind":"bulk-substation","name":"Vinirma","voltage":132,"ssType":"Private","connectedSs":"220KV PORUMAMILLA SS","mva":0,"circle":"Kadapa","district":null,"lng":79.02354,"lat":14.85997}},{"type":"Feature","id":"bs-jsw","geometry":{"type":"Point","coordinates":[78.45756,15.68988]},"properties":{"id":"bs-jsw","kind":"bulk-substation","name":"JSW","voltage":220,"ssType":"Private","connectedSs":"220KV SWS BILAKALAGUDURU","mva":46.8,"circle":"Kurnool","district":null,"lng":78.45756,"lat":15.68988}},{"type":"Feature","id":"bs-yanam","geometry":{"type":"Point","coordinates":[82.2121,16.75007]},"properties":{"id":"bs-yanam","kind":"bulk-substation","name":"Yanam","voltage":132,"ssType":"Private","connectedSs":"132KV PRATAPNAGAR SS","mva":0,"circle":"Rajamahendravaram","district":null,"lng":82.2121,"lat":16.75007}},{"type":"Feature","id":"bs-hira","geometry":{"type":"Point","coordinates":[83.34183,18.53986]},"properties":{"id":"bs-hira","kind":"bulk-substation","name":"Hira","voltage":132,"ssType":"Private","connectedSs":"220KV BOBBILI GROWTH CENTRE SS","mva":27,"circle":"Vizianagaram","district":null,"lng":83.34183,"lat":18.53986}},{"type":"Feature","id":"bs-srikalahasti-pipes-ltd","geometry":{"type":"Point","coordinates":[79.62604,13.72005]},"properties":{"id":"bs-srikalahasti-pipes-ltd","kind":"bulk-substation","name":"Srikalahasti Pipes LTD","voltage":132,"ssType":"Private","connectedSs":"400KV RACHAGUNNERI SS","mva":19,"circle":"Tirupathi","district":null,"lng":79.62604,"lat":13.72005}},{"type":"Feature","id":"bs-spl-ferro-industries","geometry":{"type":"Point","coordinates":[79.62618,13.72047]},"properties":{"id":"bs-spl-ferro-industries","kind":"bulk-substation","name":"SPL Ferro Industries","voltage":132,"ssType":"Private","connectedSs":"400KV RACHAGUNNERI SS","mva":20,"circle":"Tirupathi","district":null,"lng":79.62618,"lat":13.72047}},{"type":"Feature","id":"bs-andhra-sugars-2","geometry":{"type":"Point","coordinates":[81.73982,17.0098]},"properties":{"id":"bs-andhra-sugars-2","kind":"bulk-substation","name":"Andhra Sugars","voltage":132,"ssType":"Private","connectedSs":"132KV SAGGONDA SS","mva":40,"circle":"Eluru","district":null,"lng":81.73982,"lat":17.0098}},{"type":"Feature","id":"bs-silk-road-sugars","geometry":{"type":"Point","coordinates":[82.27299,16.99646]},"properties":{"id":"bs-silk-road-sugars","kind":"bulk-substation","name":"Silk Road Sugars","voltage":132,"ssType":"Private","connectedSs":"220KV KAKINADA SS 132KV SILK ROAD SUGARS. SS","mva":1,"circle":"Rajamahendravaram","district":null,"lng":82.27299,"lat":16.99646}},{"type":"Feature","id":"bs-miepl","geometry":{"type":"Point","coordinates":[77.36285,15.91514]},"properties":{"id":"bs-miepl","kind":"bulk-substation","name":"MIEPL","voltage":132,"ssType":"Private","connectedSs":"132KV MADHAVARAM SS","mva":16.1,"circle":"Kurnool","district":null,"lng":77.36285,"lat":15.91514}},{"type":"Feature","id":"bs-jvil","geometry":{"type":"Point","coordinates":[80.18336,15.82888]},"properties":{"id":"bs-jvil","kind":"bulk-substation","name":"JVIL","voltage":0,"ssType":"Private","connectedSs":"132KV INKOLLU SS","mva":9,"circle":"Ongole","district":null,"lng":80.18336,"lat":15.82888}},{"type":"Feature","id":"bs-amaravathi","geometry":{"type":"Point","coordinates":[80.0964,15.96345]},"properties":{"id":"bs-amaravathi","kind":"bulk-substation","name":"Amaravathi","voltage":132,"ssType":"Private","connectedSs":"132KV MARTUR SS","mva":12,"circle":"Ongole","district":null,"lng":80.0964,"lat":15.96345}},{"type":"Feature","id":"bs-rain-cements","geometry":{"type":"Point","coordinates":[77.9295,15.21927]},"properties":{"id":"bs-rain-cements","kind":"bulk-substation","name":"Rain Cements","voltage":132,"ssType":"Private","connectedSs":"132KV N.RACHERLA SS","mva":17,"circle":"Kurnool","district":null,"lng":77.9295,"lat":15.21927}},{"type":"Feature","id":"bs-seil","geometry":{"type":"Point","coordinates":[83.16456,17.96456]},"properties":{"id":"bs-seil","kind":"bulk-substation","name":"SEIL","voltage":132,"ssType":"Private","connectedSs":"132KV GOLD STAR SW STATION","mva":2,"circle":"Vizianagaram","district":null,"lng":83.16456,"lat":17.96456}},{"type":"Feature","id":"bs-bhavya-cements","geometry":{"type":"Point","coordinates":[79.81396,16.6577]},"properties":{"id":"bs-bhavya-cements","kind":"bulk-substation","name":"Bhavya Cements","voltage":132,"ssType":"Private","connectedSs":"132KV TANGEDA SS","mva":17,"circle":"Guntur","district":null,"lng":79.81396,"lat":16.6577}},{"type":"Feature","id":"bs-colorshine-india","geometry":{"type":"Point","coordinates":[79.77098,14.12595]},"properties":{"id":"bs-colorshine-india","kind":"bulk-substation","name":"Colorshine India","voltage":132,"ssType":"Private","connectedSs":"132KV GUDUR SS","mva":10,"circle":"Nellore","district":null,"lng":79.77098,"lat":14.12595}},{"type":"Feature","id":"bs-linde","geometry":{"type":"Point","coordinates":[79.94699,13.53922]},"properties":{"id":"bs-linde","kind":"bulk-substation","name":"Linde","voltage":132,"ssType":"Private","connectedSs":"132KV CHERIVI SS","mva":8.5,"circle":"Tirupathi","district":null,"lng":79.94699,"lat":13.53922}},{"type":"Feature","id":"bs-m-s-lyfus-pharma","geometry":{"type":"Point","coordinates":[82.41483,17.18815]},"properties":{"id":"bs-m-s-lyfus-pharma","kind":"bulk-substation","name":"M/s Lyfus Pharma","voltage":132,"ssType":"Private","connectedSs":"132KV PITHAPURAM SS 132KV Hamsavaram SS","mva":30,"circle":"Rajamahendravaram","district":null,"lng":82.41483,"lat":17.18815}},{"type":"Feature","id":"bs-shree-cement","geometry":{"type":"Point","coordinates":[79.73737,16.51576]},"properties":{"id":"bs-shree-cement","kind":"bulk-substation","name":"Shree Cement","voltage":220,"ssType":"Private","connectedSs":"220KV Inaparajupalli SWS","mva":30,"circle":"Guntur","district":null,"lng":79.73737,"lat":16.51576}},{"type":"Feature","id":"bs-greenlam-south","geometry":{"type":"Point","coordinates":[79.82579,13.92991]},"properties":{"id":"bs-greenlam-south","kind":"bulk-substation","name":"Greenlam South","voltage":132,"ssType":"Private","connectedSs":"132KV MEENAKUR SS","mva":10.5,"circle":"Nellore","district":null,"lng":79.82579,"lat":13.92991}},{"type":"Feature","id":"bs-m-s-shreas-industries-ltd","geometry":{"type":"Point","coordinates":[83.6238,18.12183]},"properties":{"id":"bs-m-s-shreas-industries-ltd","kind":"bulk-substation","name":"M/s. Shreas Industries Ltd","voltage":132,"ssType":"Private","connectedSs":"220KV PYDIBHIMAVARAM SS","mva":20,"circle":"Srikakulam","district":null,"lng":83.6238,"lat":18.12183}},{"type":"Feature","id":"bs-m-s-bharathi-cements-ltd","geometry":{"type":"Point","coordinates":[78.5799,14.59033]},"properties":{"id":"bs-m-s-bharathi-cements-ltd","kind":"bulk-substation","name":"M/s Bharathi Cements Ltd","voltage":132,"ssType":"Private","connectedSs":"132KV BHARATHI CEMENTS LTD SS","mva":0,"circle":"Kadapa","district":null,"lng":78.5799,"lat":14.59033}},{"type":"Feature","id":"bs-reliance-power","geometry":{"type":"Point","coordinates":[82.13597,17.03798]},"properties":{"id":"bs-reliance-power","kind":"bulk-substation","name":"Reliance Power","voltage":220,"ssType":"Private","connectedSs":"220KV SAMALKOT SS","mva":0.5,"circle":"Rajamahendravaram","district":null,"lng":82.13597,"lat":17.03798}},{"type":"Feature","id":"bs-jairaj-ispat","geometry":{"type":"Point","coordinates":[78.14903,15.65297]},"properties":{"id":"bs-jairaj-ispat","kind":"bulk-substation","name":"Jairaj Ispat","voltage":220,"ssType":"Private","connectedSs":"220KV SWS Uppalapadu","mva":50,"circle":"Kurnool","district":null,"lng":78.14903,"lat":15.65297}},{"type":"Feature","id":"bs-century-panels","geometry":{"type":"Point","coordinates":[79.1432,14.71119]},"properties":{"id":"bs-century-panels","kind":"bulk-substation","name":"Century Panels","voltage":132,"ssType":"Private","connectedSs":"132KV BADVEL SS","mva":0,"circle":"Kadapa","district":null,"lng":79.1432,"lat":14.71119}},{"type":"Feature","id":"bs-anrak-aluminium","geometry":{"type":"Point","coordinates":[82.74332,17.59621]},"properties":{"id":"bs-anrak-aluminium","kind":"bulk-substation","name":"Anrak Aluminium","voltage":220,"ssType":"Private","connectedSs":"220KV ANRAK SS","mva":11,"circle":"Visakhapatnam","district":null,"lng":82.74332,"lat":17.59621}},{"type":"Feature","id":"bs-musalikunta-lis","geometry":{"type":"Point","coordinates":[78.57393,13.94657]},"properties":{"id":"bs-musalikunta-lis","kind":"bulk-substation","name":"Musalikunta (LIS)","voltage":132,"ssType":"Private","connectedSs":"220KV Thimmapuram","mva":0,"circle":"Tirupathi","district":null,"lng":78.57393,"lat":13.94657}},{"type":"Feature","id":"bs-pushpith-steels","geometry":{"type":"Point","coordinates":[79.62357,13.70814]},"properties":{"id":"bs-pushpith-steels","kind":"bulk-substation","name":"Pushpith Steels","voltage":132,"ssType":"Private","connectedSs":"400KV RACHAGUNNERI SS","mva":0,"circle":"Tirupathi","district":"Chittoor","lng":79.62357,"lat":13.70814}},{"type":"Feature","id":"bs-aman-try","geometry":{"type":"Point","coordinates":[79.86686,13.84105]},"properties":{"id":"bs-aman-try","kind":"bulk-substation","name":"Aman Try","voltage":132,"ssType":"Private","connectedSs":"132KV NAIDUPET SS","mva":32.9,"circle":"Nellore","district":null,"lng":79.86686,"lat":13.84105}},{"type":"Feature","id":"bs-mallaiahgaripalli-lis","geometry":{"type":"Point","coordinates":[78.11924,14.06092]},"properties":{"id":"bs-mallaiahgaripalli-lis","kind":"bulk-substation","name":"Mallaiahgaripalli (LIS)","voltage":132,"ssType":"Private","connectedSs":"220KV Muthyalacheruvu","mva":0,"circle":"Anantapur","district":null,"lng":78.11924,"lat":14.06092}},{"type":"Feature","id":"bs-jeedipalli-lis","geometry":{"type":"Point","coordinates":[77.26638,14.66823]},"properties":{"id":"bs-jeedipalli-lis","kind":"bulk-substation","name":"Jeedipalli (LIS)","voltage":132,"ssType":"Private","connectedSs":"132KV Anantapur- Ankampalli TAP","mva":0,"circle":"Anantapur","district":null,"lng":77.26638,"lat":14.66823}}]}