{"type":"FeatureCollection","features":[{"type":"Feature","id":"g-waneep-solar","geometry":{"type":"Point","coordinates":[79.62063,13.28981]},"properties":{"id":"g-waneep-solar","kind":"generation","name":"WANEEP SOLAR","descriptiveName":"WANEEP SOLAR plant","ssCode":"WANEEP SOLAR","energy":"Solar","voltage":132,"circle":"Tirupathi","doc":null,"capacityMw":null,"lng":79.62063,"lat":13.28981}},{"type":"Feature","id":"g-lower-sileru","geometry":{"type":"Point","coordinates":[81.65827,17.86789]},"properties":{"id":"g-lower-sileru","kind":"generation","name":"Lower Sileru","descriptiveName":"Lower Sileru","ssCode":"Lower_Sileru","energy":"Hydro","voltage":220,"circle":"Rajamahendravaram","doc":null,"capacityMw":null,"lng":81.65827,"lat":17.86789}},{"type":"Feature","id":"g-ecoren","geometry":{"type":"Point","coordinates":[78.97862,14.82175]},"properties":{"id":"g-ecoren","kind":"generation","name":"ECOREN","descriptiveName":"ECOREN","ssCode":"ECOREN","energy":"Wind","voltage":220,"circle":"Kadapa","doc":null,"capacityMw":null,"lng":78.97862,"lat":14.82175}},{"type":"Feature","id":"g-krishnapatnam","geometry":{"type":"Point","coordinates":[80.12125,14.33176]},"properties":{"id":"g-krishnapatnam","kind":"generation","name":"Krishnapatnam","descriptiveName":"Krishnapatnam","ssCode":"APGENCO","energy":"Thermal","voltage":400,"circle":"Nellore","doc":null,"capacityMw":null,"lng":80.12125,"lat":14.33176}},{"type":"Feature","id":"g-welsun","geometry":{"type":"Point","coordinates":[78.22033,14.58575]},"properties":{"id":"g-welsun","kind":"generation","name":"Welsun","descriptiveName":"Welsun","ssCode":"Welsun","energy":"Solar","voltage":132,"circle":"Kadapa","doc":null,"capacityMw":null,"lng":78.22033,"lat":14.58575}},{"type":"Feature","id":"g-lvs-power","geometry":{"type":"Point","coordinates":[83.23751,17.84581]},"properties":{"id":"g-lvs-power","kind":"generation","name":"LVS Power","descriptiveName":"LVS Power","ssCode":"LVS Power","energy":"Thermal","voltage":132,"circle":"Visakhapatnam","doc":null,"capacityMw":null,"lng":83.23751,"lat":17.84581}},{"type":"Feature","id":"g-rtpp","geometry":{"type":"Point","coordinates":[78.46249,14.6962]},"properties":{"id":"g-rtpp","kind":"generation","name":"RTPP","descriptiveName":"RTPP","ssCode":"APGENCO","energy":"Thermal","voltage":400,"circle":"Kadapa","doc":null,"capacityMw":null,"lng":78.46249,"lat":14.6962}},{"type":"Feature","id":"g-gandikota-wind","geometry":{"type":"Point","coordinates":[78.27903,14.78703]},"properties":{"id":"g-gandikota-wind","kind":"generation","name":"Gandikota Wind","descriptiveName":"Gandikota Wind Power SubStation","ssCode":"GKPS","energy":"Wind","voltage":132,"circle":"Kadapa","doc":null,"capacityMw":null,"lng":78.27903,"lat":14.78703}},{"type":"Feature","id":"g-gmr","geometry":{"type":"Point","coordinates":[81.81169,16.92753]},"properties":{"id":"g-gmr","kind":"generation","name":"GMR","descriptiveName":"GMR 400KV Yard","ssCode":"Generator","energy":"Gas","voltage":400,"circle":"Rajamahendravaram","doc":null,"capacityMw":null,"lng":81.81169,"lat":16.92753}},{"type":"Feature","id":"g-gvk","geometry":{"type":"Point","coordinates":[81.86138,16.93432]},"properties":{"id":"g-gvk","kind":"generation","name":"GVK","descriptiveName":"GVK 400KV Yard","ssCode":"Generator","energy":"Gas","voltage":400,"circle":"Rajamahendravaram","doc":null,"capacityMw":null,"lng":81.86138,"lat":16.93432}},{"type":"Feature","id":"g-gvk-2","geometry":{"type":"Point","coordinates":[81.86087,16.93336]},"properties":{"id":"g-gvk-2","kind":"generation","name":"GVK","descriptiveName":"Vijjeswaram Gas power plant","ssCode":"Pvt_Generator","energy":"Gas","voltage":220,"circle":"Rajamahendravaram","doc":null,"capacityMw":null,"lng":81.86087,"lat":16.93336}},{"type":"Feature","id":"g-srivatsa","geometry":{"type":"Point","coordinates":[81.84943,16.46113]},"properties":{"id":"g-srivatsa","kind":"generation","name":"Srivatsa","descriptiveName":"Srivatsa Natural Gas Power Plant","ssCode":"Srivatsa","energy":"Gas","voltage":132,"circle":"Rajamahendravaram","doc":null,"capacityMw":null,"lng":81.84943,"lat":16.46113}},{"type":"Feature","id":"g-azure-solar","geometry":{"type":"Point","coordinates":[77.84128,15.0232]},"properties":{"id":"g-azure-solar","kind":"generation","name":"Azure Solar","descriptiveName":"Azure Solar Power park","ssCode":"ASPP","energy":"Solar","voltage":132,"circle":"Anantapur","doc":null,"capacityMw":null,"lng":77.84128,"lat":15.0232}},{"type":"Feature","id":"g-aurobindo-solar","geometry":{"type":"Point","coordinates":[83.64776,18.13668]},"properties":{"id":"g-aurobindo-solar","kind":"generation","name":"Aurobindo Solar","descriptiveName":"Aurobindo Solar Power Plant","ssCode":"Auro Solar PS","energy":"Solar","voltage":132,"circle":"Srikakulam","doc":null,"capacityMw":null,"lng":83.64776,"lat":18.13668}},{"type":"Feature","id":"g-rtpp-2","geometry":{"type":"Point","coordinates":[78.46017,14.70361]},"properties":{"id":"g-rtpp-2","kind":"generation","name":"RTPP","descriptiveName":"RTPP 220KV Yard","ssCode":"RTPP","energy":"Thermal","voltage":220,"circle":"Kadapa","doc":null,"capacityMw":null,"lng":78.46017,"lat":14.70361}},{"type":"Feature","id":"g-dayanidhi-solar","geometry":{"type":"Point","coordinates":[78.38351,12.8729]},"properties":{"id":"g-dayanidhi-solar","kind":"generation","name":"Dayanidhi Solar","descriptiveName":"Dayanidhi Solar Power pvt.,","ssCode":"Dayanidhi","energy":"Solar","voltage":132,"circle":"Tirupathi","doc":null,"capacityMw":null,"lng":78.38351,"lat":12.8729}},{"type":"Feature","id":"g-upper-sileru","geometry":{"type":"Point","coordinates":[82.01783,18.03653]},"properties":{"id":"g-upper-sileru","kind":"generation","name":"Upper Sileru","descriptiveName":"Upper Sileru Yard","ssCode":"Upper_Sileru","energy":"Hydro","voltage":220,"circle":"Visakhapatnam","doc":null,"capacityMw":null,"lng":82.01783,"lat":18.03653}},{"type":"Feature","id":"g-vtps","geometry":{"type":"Point","coordinates":[80.54395,16.59421]},"properties":{"id":"g-vtps","kind":"generation","name":"VTPS","descriptiveName":"VTPS","ssCode":"APGENCO","energy":"Thermal","voltage":400,"circle":"Vijayawada","doc":null,"capacityMw":null,"lng":80.54395,"lat":16.59421}},{"type":"Feature","id":"g-gowthami","geometry":{"type":"Point","coordinates":[82.12645,17.03906]},"properties":{"id":"g-gowthami","kind":"generation","name":"Gowthami","descriptiveName":"Gowthami 400KV Yard","ssCode":"Generator","energy":"Thermal","voltage":400,"circle":"Rajamahendravaram","doc":null,"capacityMw":null,"lng":82.12645,"lat":17.03906}},{"type":"Feature","id":"g-srisailam","geometry":{"type":"Point","coordinates":[78.90452,16.08843]},"properties":{"id":"g-srisailam","kind":"generation","name":"Srisailam","descriptiveName":"Srisailam","ssCode":"APGENCO","energy":"Hydro","voltage":400,"circle":"Kurnool","doc":null,"capacityMw":null,"lng":78.90452,"lat":16.08843}},{"type":"Feature","id":"g-waneep","geometry":{"type":"Point","coordinates":[78.6191,13.73958]},"properties":{"id":"g-waneep","kind":"generation","name":"Waneep","descriptiveName":"Waneep Solar Plant","ssCode":"Solar","energy":"Solar","voltage":132,"circle":"Tirupathi","doc":null,"capacityMw":null,"lng":78.6191,"lat":13.73958}},{"type":"Feature","id":"g-stpp","geometry":{"type":"Point","coordinates":[83.08749,17.60182]},"properties":{"id":"g-stpp","kind":"generation","name":"STPP","descriptiveName":"STPP 400KV Yard","ssCode":"NTPC","energy":"Thermal","voltage":400,"circle":"Visakhapatnam","doc":null,"capacityMw":null,"lng":83.08749,"lat":17.60182}},{"type":"Feature","id":"g-poly-solar","geometry":{"type":"Point","coordinates":[77.07838,14.50544]},"properties":{"id":"g-poly-solar","kind":"generation","name":"Poly Solar","descriptiveName":"Poly Solar Wind","ssCode":"Wind","energy":"Wind","voltage":132,"circle":"Anantapur","doc":null,"capacityMw":null,"lng":77.07838,"lat":14.50544}},{"type":"Feature","id":"g-vtps-2","geometry":{"type":"Point","coordinates":[80.53799,16.59534]},"properties":{"id":"g-vtps-2","kind":"generation","name":"VTPS","descriptiveName":"VTPS","ssCode":"Yard-VTPS","energy":"Thermal","voltage":220,"circle":"Vijayawada","doc":null,"capacityMw":null,"lng":80.53799,"lat":16.59534}},{"type":"Feature","id":"g-rvk","geometry":{"type":"Point","coordinates":[81.13275,16.2803]},"properties":{"id":"g-rvk","kind":"generation","name":"RVK","descriptiveName":"RVK plant yard","ssCode":"RVK Plant","energy":"Gas","voltage":132,"circle":"Vijayawada","doc":null,"capacityMw":null,"lng":81.13275,"lat":16.2803}},{"type":"Feature","id":"g-kothapalli","geometry":{"type":"Point","coordinates":[78.12003,14.18404]},"properties":{"id":"g-kothapalli","kind":"generation","name":"Kothapalli","descriptiveName":null,"ssCode":null,"energy":"Other","voltage":132,"circle":"Anantapur","doc":null,"capacityMw":null,"lng":78.12003,"lat":14.18404}},{"type":"Feature","id":"g-axis","geometry":{"type":"Point","coordinates":[77.42915,14.78153]},"properties":{"id":"g-axis","kind":"generation","name":"Axis","descriptiveName":"AXIS WIND 220KV SS","ssCode":"AXIS WIND","energy":"Wind","voltage":220,"circle":"Anantapur","doc":null,"capacityMw":null,"lng":77.42915,"lat":14.78153}},{"type":"Feature","id":"g-renew-karadikonda","geometry":{"type":"Point","coordinates":[77.62604,15.50538]},"properties":{"id":"g-renew-karadikonda","kind":"generation","name":"Renew (Karadikonda)","descriptiveName":"220KV Renew/ Karadikonda Solar PS","ssCode":null,"energy":"Solar","voltage":220,"circle":"Kurnool","doc":null,"capacityMw":null,"lng":77.62604,"lat":15.50538}},{"type":"Feature","id":"g-vemulapadu","geometry":{"type":"Point","coordinates":[78.19533,15.23765]},"properties":{"id":"g-vemulapadu","kind":"generation","name":"Vemulapadu","descriptiveName":"Vemulapadu SS","ssCode":"Vemulapadu","energy":"Solar","voltage":132,"circle":"Kurnool","doc":null,"capacityMw":null,"lng":78.19533,"lat":15.23765}},{"type":"Feature","id":"g-muttala","geometry":{"type":"Point","coordinates":[77.36738,14.61536]},"properties":{"id":"g-muttala","kind":"generation","name":"Muttala","descriptiveName":"Rayala wind company Muttala SS","ssCode":"Muttala","energy":"Wind","voltage":220,"circle":"Anantapur","doc":null,"capacityMw":null,"lng":77.36738,"lat":14.61536}},{"type":"Feature","id":"g-hnpcl","geometry":{"type":"Point","coordinates":[83.14199,17.5649]},"properties":{"id":"g-hnpcl","kind":"generation","name":"HNPCL","descriptiveName":"HNPCL 400KV Yard","ssCode":"Generator","energy":"Thermal","voltage":400,"circle":"Visakhapatnam","doc":null,"capacityMw":null,"lng":83.14199,"lat":17.5649}},{"type":"Feature","id":"g-konaseema","geometry":{"type":"Point","coordinates":[81.86424,16.73488]},"properties":{"id":"g-konaseema","kind":"generation","name":"Konaseema","descriptiveName":"Konaseema 400KV Yard","ssCode":"Generator","energy":"Gas","voltage":400,"circle":"Rajamahendravaram","doc":null,"capacityMw":null,"lng":81.86424,"lat":16.73488}},{"type":"Feature","id":"g-helios-ps","geometry":{"type":"Point","coordinates":[77.37521,14.37536]},"properties":{"id":"g-helios-ps","kind":"generation","name":"Helios PS","descriptiveName":"220KV Helios PS","ssCode":null,"energy":"Solar","voltage":220,"circle":"Anantapur","doc":null,"capacityMw":null,"lng":77.37521,"lat":14.37536}},{"type":"Feature","id":"g-seil-plant-2","geometry":{"type":"Point","coordinates":[80.14403,14.34841]},"properties":{"id":"g-seil-plant-2","kind":"generation","name":"SEIL Plant-2","descriptiveName":"M/S Semcorb (SEIL Plant-2 )","ssCode":null,"energy":"Thermal","voltage":400,"circle":"Nellore","doc":"23.01.2024","capacityMw":null,"lng":80.14403,"lat":14.34841}},{"type":"Feature","id":"g-jutur-mythra","geometry":{"type":"Point","coordinates":[77.46036,15.45455]},"properties":{"id":"g-jutur-mythra","kind":"generation","name":"Jutur (Mythra)","descriptiveName":"220KV Jutur Wind PS","ssCode":null,"energy":"Wind","voltage":220,"circle":"Kurnool","doc":null,"capacityMw":null,"lng":77.46036,"lat":15.45455}},{"type":"Feature","id":"g-n-s-tailpond","geometry":{"type":"Point","coordinates":[79.49126,16.62555]},"properties":{"id":"g-n-s-tailpond","kind":"generation","name":"N.S.Tailpond","descriptiveName":"N.S.Tailpond","ssCode":null,"energy":"Hydro","voltage":132,"circle":"Guntur","doc":null,"capacityMw":null,"lng":79.49126,"lat":16.62555}},{"type":"Feature","id":"g-rcl","geometry":{"type":"Point","coordinates":[83.26313,17.7148]},"properties":{"id":"g-rcl","kind":"generation","name":"RCL","descriptiveName":"Rain Calcining","ssCode":"RCL","energy":"Thermal","voltage":132,"circle":"Visakhapatnam","doc":null,"capacityMw":null,"lng":83.26313,"lat":17.7148}},{"type":"Feature","id":"g-renew","geometry":{"type":"Point","coordinates":[77.2661,15.52752]},"properties":{"id":"g-renew","kind":"generation","name":"Renew","descriptiveName":"132KV Renew Solar PS","ssCode":null,"energy":"Solar","voltage":132,"circle":"Kurnool","doc":null,"capacityMw":null,"lng":77.2661,"lat":15.52752}},{"type":"Feature","id":"g-vishwatma","geometry":{"type":"Point","coordinates":[77.47867,15.67208]},"properties":{"id":"g-vishwatma","kind":"generation","name":"Vishwatma","descriptiveName":"132KV Vishwatma (Kadivella) Solar PS","ssCode":null,"energy":"Solar","voltage":132,"circle":"Kurnool","doc":null,"capacityMw":null,"lng":77.47867,"lat":15.67208}},{"type":"Feature","id":"g-sei","geometry":{"type":"Point","coordinates":[79.58715,14.49415]},"properties":{"id":"g-sei","kind":"generation","name":"SEI","descriptiveName":"SEI Green Flash","ssCode":"SEIGF","energy":"Solar","voltage":132,"circle":"Nellore","doc":null,"capacityMw":null,"lng":79.58715,"lat":14.49415}},{"type":"Feature","id":"g-mylavaram-ps1","geometry":{"type":"Point","coordinates":[78.23157,14.94772]},"properties":{"id":"g-mylavaram-ps1","kind":"generation","name":"Mylavaram PS1","descriptiveName":"Mylavaram Solar(PS1)","ssCode":null,"energy":"Solar","voltage":220,"circle":"Kadapa","doc":null,"capacityMw":null,"lng":78.23157,"lat":14.94772}},{"type":"Feature","id":"g-theta","geometry":{"type":"Point","coordinates":[77.17951,14.58883]},"properties":{"id":"g-theta","kind":"generation","name":"Theta","descriptiveName":"Theta wind energy","ssCode":"Theta","energy":"Wind","voltage":220,"circle":"Anantapur","doc":null,"capacityMw":null,"lng":77.17951,"lat":14.58883}},{"type":"Feature","id":"g-enorcon","geometry":{"type":"Point","coordinates":[77.52251,14.15195]},"properties":{"id":"g-enorcon","kind":"generation","name":"Enorcon","descriptiveName":"Enorcon","ssCode":null,"energy":"Wind","voltage":220,"circle":"Anantapur","doc":null,"capacityMw":null,"lng":77.52251,"lat":14.15195}},{"type":"Feature","id":"g-ellutla","geometry":{"type":"Point","coordinates":[77.92313,14.66668]},"properties":{"id":"g-ellutla","kind":"generation","name":"Ellutla","descriptiveName":"Ellutla Polling Station","ssCode":"Ellutla","energy":"Solar","voltage":220,"circle":"Anantapur","doc":null,"capacityMw":null,"lng":77.92313,"lat":14.66668}},{"type":"Feature","id":"g-suzlon","geometry":{"type":"Point","coordinates":[77.30501,14.97825]},"properties":{"id":"g-suzlon","kind":"generation","name":"Suzlon","descriptiveName":"SUZLON","ssCode":"SUZLON","energy":"Solar","voltage":220,"circle":"Anantapur","doc":null,"capacityMw":null,"lng":77.30501,"lat":14.97825}},{"type":"Feature","id":"g-rvk-power","geometry":{"type":"Point","coordinates":[81.8462,16.92902]},"properties":{"id":"g-rvk-power","kind":"generation","name":"RVK Power","descriptiveName":"RVK Power Ltd.,","ssCode":"RVKP","energy":"Gas","voltage":132,"circle":"Rajamahendravaram","doc":null,"capacityMw":null,"lng":81.8462,"lat":16.92902}},{"type":"Feature","id":"g-arohi-solar","geometry":{"type":"Point","coordinates":[77.48061,13.97687]},"properties":{"id":"g-arohi-solar","kind":"generation","name":"Arohi Solar","descriptiveName":null,"ssCode":null,"energy":"Solar","voltage":132,"circle":"Anantapur","doc":null,"capacityMw":null,"lng":77.48061,"lat":13.97687}},{"type":"Feature","id":"g-molagavalli-gamesha","geometry":{"type":"Point","coordinates":[77.30028,15.37187]},"properties":{"id":"g-molagavalli-gamesha","kind":"generation","name":"Molagavalli (Gamesha)","descriptiveName":"220KV Molagavalli (Myntra) Wind PS","ssCode":null,"energy":"Wind","voltage":220,"circle":"Kurnool","doc":null,"capacityMw":null,"lng":77.30028,"lat":15.37187}},{"type":"Feature","id":"g-machkund","geometry":{"type":"Point","coordinates":[82.44175,18.50862]},"properties":{"id":"g-machkund","kind":"generation","name":"Machkund","descriptiveName":"132KV Machkund","ssCode":"Machkund","energy":"Hydro","voltage":132,"circle":"Visakhapatnam","doc":null,"capacityMw":null,"lng":82.44175,"lat":18.50862}},{"type":"Feature","id":"g-saipuram-greenco","geometry":{"type":"Point","coordinates":[77.20952,14.50988]},"properties":{"id":"g-saipuram-greenco","kind":"generation","name":"Saipuram (Greenco)","descriptiveName":"GREENKO Saipuram","ssCode":null,"energy":"Solar","voltage":220,"circle":"Anantapur","doc":null,"capacityMw":null,"lng":77.20952,"lat":14.50988}},{"type":"Feature","id":"g-ecoren-ralla","geometry":{"type":"Point","coordinates":[77.37772,14.43812]},"properties":{"id":"g-ecoren-ralla","kind":"generation","name":"Ecoren (Ralla)","descriptiveName":"Ecoren (Ralla) - ( 200+100MW)","ssCode":"ECOREN","energy":"Wind","voltage":220,"circle":"Anantapur","doc":null,"capacityMw":null,"lng":77.37772,"lat":14.43812}},{"type":"Feature","id":"g-hindupur","geometry":{"type":"Point","coordinates":[77.49645,13.93425]},"properties":{"id":"g-hindupur","kind":"generation","name":"Hindupur","descriptiveName":"Hindupur","ssCode":null,"energy":"Solar","voltage":132,"circle":"Anantapur","doc":null,"capacityMw":null,"lng":77.49645,"lat":13.93425}},{"type":"Feature","id":"g-vijjeswaram-1","geometry":{"type":"Point","coordinates":[81.72467,16.9342]},"properties":{"id":"g-vijjeswaram-1","kind":"generation","name":"Vijjeswaram-1","descriptiveName":"Vijjeswaram-1","ssCode":null,"energy":"Gas","voltage":220,"circle":"Eluru","doc":null,"capacityMw":null,"lng":81.72467,"lat":16.9342}},{"type":"Feature","id":"g-vijjeswaram-2","geometry":{"type":"Point","coordinates":[81.72246,16.93524]},"properties":{"id":"g-vijjeswaram-2","kind":"generation","name":"Vijjeswaram-2","descriptiveName":"Vijjeswaram-2","ssCode":null,"energy":"Gas","voltage":220,"circle":"Eluru","doc":null,"capacityMw":null,"lng":81.72246,"lat":16.93524}},{"type":"Feature","id":"g-mylavaram-ps2","geometry":{"type":"Point","coordinates":[78.25028,14.94794]},"properties":{"id":"g-mylavaram-ps2","kind":"generation","name":"Mylavaram PS2","descriptiveName":"Mylavaram Solar(PS2)","ssCode":null,"energy":"Solar","voltage":220,"circle":"Kadapa","doc":null,"capacityMw":null,"lng":78.25028,"lat":14.94794}},{"type":"Feature","id":"g-mylavaram-ps3","geometry":{"type":"Point","coordinates":[78.26476,14.92461]},"properties":{"id":"g-mylavaram-ps3","kind":"generation","name":"Mylavaram PS3","descriptiveName":"Mylavaram Solar(PS3)","ssCode":null,"energy":"Solar","voltage":220,"circle":"Kadapa","doc":"06.02.2026","capacityMw":null,"lng":78.26476,"lat":14.92461}},{"type":"Feature","id":"g-mylavaram-ps4","geometry":{"type":"Point","coordinates":[78.27833,14.92251]},"properties":{"id":"g-mylavaram-ps4","kind":"generation","name":"Mylavaram PS4","descriptiveName":"Mylavaram Solar(PS4)","ssCode":null,"energy":"Solar","voltage":220,"circle":"Kadapa","doc":null,"capacityMw":null,"lng":78.27833,"lat":14.92251}}]}