{"type":"FeatureCollection","features":[{"type":"Feature","id":"ps-palasa-pg","geometry":{"type":"Point","coordinates":[84.45264,18.80623]},"properties":{"id":"ps-palasa-pg","kind":"pg-substation","name":"Palasa (PG)","fullName":"Palasa 765KV SS","voltage":765,"lng":84.45264,"lat":18.80623}},{"type":"Feature","id":"ps-vemagiri-pg","geometry":{"type":"Point","coordinates":[82.05432,17.09202]},"properties":{"id":"ps-vemagiri-pg","kind":"pg-substation","name":"Vemagiri (PG)","fullName":"Vemagiri 765KV SS","voltage":765,"lng":82.05432,"lat":17.09202}},{"type":"Feature","id":"ps-chilakaluripet-pg","geometry":{"type":"Point","coordinates":[79.94489,16.21615]},"properties":{"id":"ps-chilakaluripet-pg","kind":"pg-substation","name":"Chilakaluripet (PG)","fullName":"Chilakaluripet 765KV SS","voltage":765,"lng":79.94489,"lat":16.21615}},{"type":"Feature","id":"ps-kadapa-pg","geometry":{"type":"Point","coordinates":[78.79873,14.38341]},"properties":{"id":"ps-kadapa-pg","kind":"pg-substation","name":"Kadapa (PG)","fullName":"Kadapa 765KV SS","voltage":765,"lng":78.79873,"lat":14.38341}},{"type":"Feature","id":"ps-kurnool-pg","geometry":{"type":"Point","coordinates":[78.17792,15.67245]},"properties":{"id":"ps-kurnool-pg","kind":"pg-substation","name":"Kurnool (PG)","fullName":"Kurnool 765KV SS","voltage":765,"lng":78.17792,"lat":15.67245}},{"type":"Feature","id":"ps-nellore-ps-pg","geometry":{"type":"Point","coordinates":[79.89992,14.25037]},"properties":{"id":"ps-nellore-ps-pg","kind":"pg-substation","name":"Nellore PS (PG)","fullName":"Nellore 765KV SS","voltage":765,"lng":79.89992,"lat":14.25037}},{"type":"Feature","id":"ps-raichur-pg","geometry":{"type":"Point","coordinates":[77.28549,16.2013]},"properties":{"id":"ps-raichur-pg","kind":"pg-substation","name":"Raichur (PG)","fullName":"Raichur 765KV SS","voltage":765,"lng":77.28549,"lat":16.2013}},{"type":"Feature","id":"ps-angul-pg","geometry":{"type":"Point","coordinates":[85.15089,20.7376]},"properties":{"id":"ps-angul-pg","kind":"pg-substation","name":"Angul (PG)","fullName":"Angul 765KV SS","voltage":765,"lng":85.15089,"lat":20.7376}},{"type":"Feature","id":"ps-tiruvalam-pg","geometry":{"type":"Point","coordinates":[79.24494,13.0445]},"properties":{"id":"ps-tiruvalam-pg","kind":"pg-substation","name":"Tiruvalam (PG)","fullName":"Tiruvalam 765KV SS","voltage":765,"lng":79.24494,"lat":13.0445}},{"type":"Feature","id":"ps-maheswaram-pg","geometry":{"type":"Point","coordinates":[78.53389,17.04984]},"properties":{"id":"ps-maheswaram-pg","kind":"pg-substation","name":"Maheswaram (PG)","fullName":"Maheswaram 765KV SS","voltage":765,"lng":78.53389,"lat":17.04984}},{"type":"Feature","id":"ps-warangal-pg","geometry":{"type":"Point","coordinates":[79.67054,18.05624]},"properties":{"id":"ps-warangal-pg","kind":"pg-substation","name":"Warangal (PG)","fullName":"Warangal 765KV SS","voltage":765,"lng":79.67054,"lat":18.05624}},{"type":"Feature","id":"ps-somannahalli-pg","geometry":{"type":"Point","coordinates":[77.50752,12.78321]},"properties":{"id":"ps-somannahalli-pg","kind":"pg-substation","name":"Somannahalli (PG)","fullName":"Somannahalli","voltage":400,"lng":77.50752,"lat":12.78321}},{"type":"Feature","id":"ps-gooty-pg","geometry":{"type":"Point","coordinates":[77.65777,15.15239]},"properties":{"id":"ps-gooty-pg","kind":"pg-substation","name":"Gooty (PG)","fullName":"Gooty","voltage":400,"lng":77.65777,"lat":15.15239}},{"type":"Feature","id":"ps-nagarjunasagar-pg","geometry":{"type":"Point","coordinates":[79.3876,16.51111]},"properties":{"id":"ps-nagarjunasagar-pg","kind":"pg-substation","name":"Nagarjunasagar (PG)","fullName":"Nagarjunasagar","voltage":400,"lng":79.3876,"lat":16.51111}},{"type":"Feature","id":"ps-tpcil-pg","geometry":{"type":"Point","coordinates":[80.141,14.32618]},"properties":{"id":"ps-tpcil-pg","kind":"pg-substation","name":"TPCIL (PG)","fullName":"TPCIL","voltage":400,"lng":80.141,"lat":14.32618}},{"type":"Feature","id":"ps-mepl-pg","geometry":{"type":"Point","coordinates":[80.08646,14.21348]},"properties":{"id":"ps-mepl-pg","kind":"pg-substation","name":"MEPL (PG)","fullName":"MEPL","voltage":400,"lng":80.08646,"lat":14.21348}},{"type":"Feature","id":"ps-sepl-pg","geometry":{"type":"Point","coordinates":[80.0878,14.20716]},"properties":{"id":"ps-sepl-pg","kind":"pg-substation","name":"SEPL (PG)","fullName":"SEPL","voltage":400,"lng":80.0878,"lat":14.20716}},{"type":"Feature","id":"ps-ncc-cs-pg","geometry":{"type":"Point","coordinates":[80.14345,14.3486]},"properties":{"id":"ps-ncc-cs-pg","kind":"pg-substation","name":"NCC (CS) (PG)","fullName":"NCC (CS)","voltage":400,"lng":80.14345,"lat":14.3486}},{"type":"Feature","id":"ps-sri-perambadur-pg","geometry":{"type":"Point","coordinates":[79.97448,12.98117]},"properties":{"id":"ps-sri-perambadur-pg","kind":"pg-substation","name":"Sri Perambadur (PG)","fullName":"Sri Perambadur","voltage":400,"lng":79.97448,"lat":12.98117}},{"type":"Feature","id":"ps-nellore-pg","geometry":{"type":"Point","coordinates":[79.88355,14.22303]},"properties":{"id":"ps-nellore-pg","kind":"pg-substation","name":"Nellore (PG)","fullName":"Nellore","voltage":400,"lng":79.88355,"lat":14.22303}},{"type":"Feature","id":"ps-nunna-pg","geometry":{"type":"Point","coordinates":[80.68445,16.5647]},"properties":{"id":"ps-nunna-pg","kind":"pg-substation","name":"Nunna (PG)","fullName":"Nunna","voltage":400,"lng":80.68445,"lat":16.5647}},{"type":"Feature","id":"ps-khammmam-pg","geometry":{"type":"Point","coordinates":[80.23835,17.36741]},"properties":{"id":"ps-khammmam-pg","kind":"pg-substation","name":"Khammmam (PG)","fullName":"Khammmam","voltage":400,"lng":80.23835,"lat":17.36741}},{"type":"Feature","id":"ps-np-kunta-pg","geometry":{"type":"Point","coordinates":[78.42985,14.04791]},"properties":{"id":"ps-np-kunta-pg","kind":"pg-substation","name":"NP Kunta (PG)","fullName":"NP Kunta","voltage":400,"lng":78.42985,"lat":14.04791}},{"type":"Feature","id":"ps-gajuwaka-pg","geometry":{"type":"Point","coordinates":[83.13335,17.64088]},"properties":{"id":"ps-gajuwaka-pg","kind":"pg-substation","name":"Gajuwaka (PG)","fullName":"Gajuwaka","voltage":400,"lng":83.13335,"lat":17.64088}},{"type":"Feature","id":"ps-tumukur-pg","geometry":{"type":"Point","coordinates":[77.04662,13.47902]},"properties":{"id":"ps-tumukur-pg","kind":"pg-substation","name":"Tumukur (PG)","fullName":"Tumukur","voltage":400,"lng":77.04662,"lat":13.47902}},{"type":"Feature","id":"ps-nelamangala-pg","geometry":{"type":"Point","coordinates":[77.39539,13.08593]},"properties":{"id":"ps-nelamangala-pg","kind":"pg-substation","name":"Nelamangala (PG)","fullName":"Nelamangala","voltage":400,"lng":77.39539,"lat":13.08593}},{"type":"Feature","id":"ps-kolar-pg","geometry":{"type":"Point","coordinates":[78.11462,13.17723]},"properties":{"id":"ps-kolar-pg","kind":"pg-substation","name":"Kolar (PG)","fullName":"Kolar","voltage":400,"lng":78.11462,"lat":13.17723}},{"type":"Feature","id":"ps-jypore-pg","geometry":{"type":"Point","coordinates":[82.51145,18.9113]},"properties":{"id":"ps-jypore-pg","kind":"pg-substation","name":"Jypore (PG)","fullName":"Jypore","voltage":400,"lng":82.51145,"lat":18.9113}}]}