{"type":"FeatureCollection","features":[{"type":"Feature","id":"rs-gurazala-rtss","geometry":{"type":"Point","coordinates":[79.62334,16.54593]},"properties":{"id":"rs-gurazala-rtss","kind":"rail-substation","name":"Gurazala RTSS","displayName":"RTSS Gurazala","voltage":132,"connectedSs":"220KV RENTACHINTALA SS","mva":6,"circle":"Guntur","district":null,"lng":79.62334,"lat":16.54593}},{"type":"Feature","id":"rs-kondapalli-rtss","geometry":{"type":"Point","coordinates":[80.54828,16.6345]},"properties":{"id":"rs-kondapalli-rtss","kind":"rail-substation","name":"Kondapalli RTSS","displayName":"Kondapalli RTSS","voltage":132,"connectedSs":"220KV KONDAPALLI SS","mva":17,"circle":"Vijayawada","district":null,"lng":80.54828,"lat":16.6345}},{"type":"Feature","id":"rs-nandyal-rtss","geometry":{"type":"Point","coordinates":[78.47694,15.46553]},"properties":{"id":"rs-nandyal-rtss","kind":"rail-substation","name":"Nandyal RTSS","displayName":"RTSS Nandyal","voltage":132,"connectedSs":"220KV NANDYAL SS","mva":14,"circle":"Kurnool","district":null,"lng":78.47694,"lat":15.46553}},{"type":"Feature","id":"rs-rayadurg-rtss","geometry":{"type":"Point","coordinates":[76.85742,14.71036]},"properties":{"id":"rs-rayadurg-rtss","kind":"rail-substation","name":"Rayadurg RTSS","displayName":"Rayadurg RTSS","voltage":132,"connectedSs":"132KV RAYADURG SS","mva":12.5,"circle":"Anantapur","district":null,"lng":76.85742,"lat":14.71036}},{"type":"Feature","id":"rs-cherlopalli-rtss","geometry":{"type":"Point","coordinates":[79.40265,14.14408]},"properties":{"id":"rs-cherlopalli-rtss","kind":"rail-substation","name":"Cherlopalli RTSS","displayName":null,"voltage":132,"connectedSs":"132KV THIMMAIAH GARI PALLI SS","mva":12.5,"circle":"Kadapa","district":null,"lng":79.40265,"lat":14.14408}},{"type":"Feature","id":"rs-rangapuram-rtss","geometry":{"type":"Point","coordinates":[78.06014,15.40808]},"properties":{"id":"rs-rangapuram-rtss","kind":"rail-substation","name":"Rangapuram RTSS","displayName":"RTSS Rangapuram","voltage":220,"connectedSs":"220KVSWS SOMAYAJULAPALLI","mva":19,"circle":"Kurnool","district":null,"lng":78.06014,"lat":15.40808}},{"type":"Feature","id":"rs-satyavalli-rtss","geometry":{"type":"Point","coordinates":[78.98135,15.40152]},"properties":{"id":"rs-satyavalli-rtss","kind":"rail-substation","name":"Satyavalli RTSS","displayName":null,"voltage":132,"connectedSs":"132KV ANUMALAPALLI SS","mva":16,"circle":"Ongole","district":null,"lng":78.98135,"lat":15.40152}},{"type":"Feature","id":"rs-tuni-rtss","geometry":{"type":"Point","coordinates":[82.53124,17.35362]},"properties":{"id":"rs-tuni-rtss","kind":"rail-substation","name":"Tuni RTSS","displayName":null,"voltage":132,"connectedSs":"132KV PAYAKARAOPETA SS","mva":18,"circle":"Rajamahendravaram","district":null,"lng":82.53124,"lat":17.35362}},{"type":"Feature","id":"rs-adurupalli-rtss","geometry":{"type":"Point","coordinates":[79.6464,14.30474]},"properties":{"id":"rs-adurupalli-rtss","kind":"rail-substation","name":"Adurupalli RTSS","displayName":"Adurupalli Railway Traction SS","voltage":132,"connectedSs":"132KV ADURUPALLI SS","mva":7,"circle":"Nellore","district":null,"lng":79.6464,"lat":14.30474}},{"type":"Feature","id":"rs-anakapalli-rtss","geometry":{"type":"Point","coordinates":[82.9848,17.68571]},"properties":{"id":"rs-anakapalli-rtss","kind":"rail-substation","name":"Anakapalli RTSS","displayName":"Anakapalli RTSS","voltage":132,"connectedSs":"132KV KASIMKOTA SS","mva":17,"circle":"Visakhapatnam","district":null,"lng":82.9848,"lat":17.68571}},{"type":"Feature","id":"rs-bapatla-rtss","geometry":{"type":"Point","coordinates":[80.4576,15.90545]},"properties":{"id":"rs-bapatla-rtss","kind":"rail-substation","name":"Bapatla RTSS","displayName":"132KV RTSS Bapatla","voltage":132,"connectedSs":"132KV BAPATLA SS","mva":16.5,"circle":"Guntur","district":null,"lng":80.4576,"lat":15.90545}},{"type":"Feature","id":"rs-baruva-rtss","geometry":{"type":"Point","coordinates":[84.55526,18.90375]},"properties":{"id":"rs-baruva-rtss","kind":"rail-substation","name":"BARUVA RTSS","displayName":"BARUVA RTSS","voltage":132,"connectedSs":"132KV PALASA SS","mva":17,"circle":"Srikakulam","district":null,"lng":84.55526,"lat":18.90375}},{"type":"Feature","id":"rs-choutapalli-rtss","geometry":{"type":"Point","coordinates":[78.80157,14.46847]},"properties":{"id":"rs-choutapalli-rtss","kind":"rail-substation","name":"Choutapalli RTSS","displayName":"Choutapalli RTSS","voltage":132,"connectedSs":"132KV CHOUTAPALLI SS","mva":20,"circle":"Kadapa","district":null,"lng":78.80157,"lat":14.46847}},{"type":"Feature","id":"rs-duvvada-rtss","geometry":{"type":"Point","coordinates":[83.1467,17.70085]},"properties":{"id":"rs-duvvada-rtss","kind":"rail-substation","name":"Duvvada RTSS","displayName":"Duvvada RTSS","voltage":132,"connectedSs":"132KV VSEZ SS","mva":13,"circle":"Visakhapatnam","district":null,"lng":83.1467,"lat":17.70085}},{"type":"Feature","id":"rs-gajjalakonda-rtss","geometry":{"type":"Point","coordinates":[79.40487,15.77917]},"properties":{"id":"rs-gajjalakonda-rtss","kind":"rail-substation","name":"Gajjalakonda RTSS","displayName":"Gajjelakonda RTSS","voltage":132,"connectedSs":"132KV KESINENIPALLI SS","mva":13,"circle":"Ongole","district":null,"lng":79.40487,"lat":15.77917}},{"type":"Feature","id":"rs-gorapur-rtss","geometry":{"type":"Point","coordinates":[82.80257,18.3475]},"properties":{"id":"rs-gorapur-rtss","kind":"rail-substation","name":"Gorapur RTSS","displayName":"Gorapur RTSS","voltage":132,"connectedSs":"132KV ARAKU SS","mva":9,"circle":"Visakhapatnam","district":null,"lng":82.80257,"lat":18.3475}},{"type":"Feature","id":"rs-gudur-rtss","geometry":{"type":"Point","coordinates":[79.84222,14.13816]},"properties":{"id":"rs-gudur-rtss","kind":"rail-substation","name":"Gudur RTSS","displayName":"Gudur Railway Traction SS","voltage":132,"connectedSs":"132KV GUDUR SS","mva":14,"circle":"Nellore","district":null,"lng":79.84222,"lat":14.13816}},{"type":"Feature","id":"rs-guntakal-rtss","geometry":{"type":"Point","coordinates":[77.35026,15.17175]},"properties":{"id":"rs-guntakal-rtss","kind":"rail-substation","name":"Guntakal RTSS","displayName":"Guntakal Railway Traction SS","voltage":132,"connectedSs":"132KV GUNTAKAL SS","mva":20,"circle":"Anantapur","district":null,"lng":77.35026,"lat":15.17175}},{"type":"Feature","id":"rs-komali-rtss-rvnl","geometry":{"type":"Point","coordinates":[77.92565,14.93557]},"properties":{"id":"rs-komali-rtss-rvnl","kind":"rail-substation","name":"Komali RTSS (RVNL)","displayName":"Komali RTSS","voltage":132,"connectedSs":"132KV KOMALI SWS","mva":14,"circle":"Anantapur","district":null,"lng":77.92565,"lat":14.93557}},{"type":"Feature","id":"rs-komatipalli-rtss","geometry":{"type":"Point","coordinates":[83.34012,18.37849]},"properties":{"id":"rs-komatipalli-rtss","kind":"rail-substation","name":"Komatipalli RTSS","displayName":"Komatipalli RTSS","voltage":132,"connectedSs":"220KV BOBBILI GROWTH CENTRE SS","mva":17,"circle":"Vizianagaram","district":null,"lng":83.34012,"lat":18.37849}},{"type":"Feature","id":"rs-krishna-canal-rtss","geometry":{"type":"Point","coordinates":[80.60427,16.46514]},"properties":{"id":"rs-krishna-canal-rtss","kind":"rail-substation","name":"Krishna Canal RTSS","displayName":"Krishna Canal RTSS","voltage":132,"connectedSs":"132KV TADEPALLI SS","mva":18,"circle":"Guntur","district":null,"lng":80.60427,"lat":16.46514}},{"type":"Feature","id":"rs-kavali-rtss","geometry":{"type":"Point","coordinates":[79.98665,14.90283]},"properties":{"id":"rs-kavali-rtss","kind":"rail-substation","name":"Kavali RTSS","displayName":"Kavali Railway Traction SS","voltage":132,"connectedSs":"132KV KAVALI SS","mva":19,"circle":"Nellore","district":null,"lng":79.98665,"lat":14.90283}},{"type":"Feature","id":"rs-malugur-rtss","geometry":{"type":"Point","coordinates":[77.54172,13.8893]},"properties":{"id":"rs-malugur-rtss","kind":"rail-substation","name":"Malugur RTSS","displayName":"Malgur Railway Traction SS","voltage":132,"connectedSs":"132KV BEECHIGANIPALLI SS","mva":15,"circle":"Anantapur","district":null,"lng":77.54172,"lat":13.8893}},{"type":"Feature","id":"rs-mantralayam-rtss","geometry":{"type":"Point","coordinates":[77.30066,15.95113]},"properties":{"id":"rs-mantralayam-rtss","kind":"rail-substation","name":"Mantralayam RTSS","displayName":"MANTRALAYAM RTSS","voltage":132,"connectedSs":"132KV MADHAVARAM SS","mva":14,"circle":"Kurnool","district":null,"lng":77.30066,"lat":15.95113}},{"type":"Feature","id":"rs-nagarur-rtss","geometry":{"type":"Point","coordinates":[77.31175,15.54559]},"properties":{"id":"rs-nagarur-rtss","kind":"rail-substation","name":"Nagarur RTSS","displayName":"NAGARUR RTSS","voltage":132,"connectedSs":"132KV ADONI SS","mva":13,"circle":"Kurnool","district":null,"lng":77.31175,"lat":15.54559}},{"type":"Feature","id":"rs-naupada-rtss","geometry":{"type":"Point","coordinates":[84.27491,18.5731]},"properties":{"id":"rs-naupada-rtss","kind":"rail-substation","name":"Naupada RTSS","displayName":"Naupada RTSS 132KV","voltage":132,"connectedSs":"220KV TEKKALI SS","mva":19.5,"circle":"Srikakulam","district":null,"lng":84.27491,"lat":18.5731}},{"type":"Feature","id":"rs-nidiguntapalem-rtss","geometry":{"type":"Point","coordinates":[80.00837,14.26383]},"properties":{"id":"rs-nidiguntapalem-rtss","kind":"rail-substation","name":"Nidiguntapalem RTSS","displayName":"Nidiguntapalem Railway Traction SS","voltage":132,"connectedSs":"132KV BRAHMADEVAM SS","mva":8.5,"circle":"Nellore","district":null,"lng":80.00837,"lat":14.26383}},{"type":"Feature","id":"rs-nts-rtss","geometry":{"type":"Point","coordinates":[79.98847,14.48886]},"properties":{"id":"rs-nts-rtss","kind":"rail-substation","name":"NTS RTSS","displayName":"NTS Railway Traction SS","voltage":132,"connectedSs":"132KV NTS SS","mva":16,"circle":"Nellore","district":null,"lng":79.98847,"lat":14.48886}},{"type":"Feature","id":"rs-ongole-rtss","geometry":{"type":"Point","coordinates":[80.0523,15.48618]},"properties":{"id":"rs-ongole-rtss","kind":"rail-substation","name":"Ongole RTSS","displayName":"Ongole RTSS","voltage":132,"connectedSs":"220KV ONGOLE SS","mva":18,"circle":"Ongole","district":null,"lng":80.0523,"lat":15.48618}},{"type":"Feature","id":"rs-pakala-rtss","geometry":{"type":"Point","coordinates":[79.11056,13.44256]},"properties":{"id":"rs-pakala-rtss","kind":"rail-substation","name":"Pakala RTSS","displayName":"Pakala RTSS","voltage":132,"connectedSs":"132KV PAKALA SS","mva":11,"circle":"Tirupathi","district":null,"lng":79.11056,"lat":13.44256}},{"type":"Feature","id":"rs-pendekallu-rtss","geometry":{"type":"Point","coordinates":[77.65109,15.37476]},"properties":{"id":"rs-pendekallu-rtss","kind":"rail-substation","name":"Pendekallu RTSS","displayName":"Pendekallu RTSS","voltage":220,"connectedSs":"220KV NANSURALLA SS","mva":12,"circle":"Kurnool","district":null,"lng":77.65109,"lat":15.37476}},{"type":"Feature","id":"rs-puttaparthy-rtss","geometry":{"type":"Point","coordinates":[77.76191,14.16596]},"properties":{"id":"rs-puttaparthy-rtss","kind":"rail-substation","name":"Puttaparthy RTSS","displayName":"Puttaparthy Railway Traction feeder","voltage":132,"connectedSs":"132KV PUTTAPARTHY SS","mva":15,"circle":"Anantapur","district":null,"lng":77.76191,"lat":14.16596}},{"type":"Feature","id":"rs-puttur-rtss","geometry":{"type":"Point","coordinates":[79.547,13.45439]},"properties":{"id":"rs-puttur-rtss","kind":"rail-substation","name":"Puttur RTSS","displayName":"Puttur railway traction SS","voltage":132,"connectedSs":"132KV PUTTUR SS","mva":14,"circle":"Tirupathi","district":null,"lng":79.547,"lat":13.45439}},{"type":"Feature","id":"rs-renigunta-rtss","geometry":{"type":"Point","coordinates":[79.50997,13.64608]},"properties":{"id":"rs-renigunta-rtss","kind":"rail-substation","name":"Renigunta RTSS","displayName":"Renigunta RTSS","voltage":132,"connectedSs":"220KV RENIGUNTA SS","mva":20,"circle":"Tirupathi","district":null,"lng":79.50997,"lat":13.64608}},{"type":"Feature","id":"rs-dhavaleswaram-rtss","geometry":{"type":"Point","coordinates":[81.78954,16.96643]},"properties":{"id":"rs-dhavaleswaram-rtss","kind":"rail-substation","name":"Dhavaleswaram RTSS","displayName":"Bommuru Railway Traction SS","voltage":132,"connectedSs":"220KV BOMMUR SS","mva":16,"circle":"Rajamahendravaram","district":null,"lng":81.78954,"lat":16.96643}},{"type":"Feature","id":"rs-muddanur-rtss","geometry":{"type":"Point","coordinates":[78.40225,14.68805]},"properties":{"id":"rs-muddanur-rtss","kind":"rail-substation","name":"Muddanur RTSS","displayName":"RTSS Muddanur","voltage":132,"connectedSs":"132KV RTSS MUDDANUR SS","mva":17,"circle":"Kadapa","district":null,"lng":78.40225,"lat":14.68805}},{"type":"Feature","id":"rs-parvathipuram-rtss","geometry":{"type":"Point","coordinates":[83.42775,18.77295]},"properties":{"id":"rs-parvathipuram-rtss","kind":"rail-substation","name":"Parvathipuram RTSS","displayName":"RTSS Parvathipuram","voltage":132,"connectedSs":"132KV PARVATIPURAM SS","mva":17,"circle":"Vizianagaram","district":null,"lng":83.42775,"lat":18.77295}},{"type":"Feature","id":"rs-ponduru-rtss","geometry":{"type":"Point","coordinates":[83.77891,18.36283]},"properties":{"id":"rs-ponduru-rtss","kind":"rail-substation","name":"Ponduru RTSS","displayName":"RTSS Ponduru","voltage":132,"connectedSs":"132KV PONDURU SS","mva":18,"circle":"Srikakulam","district":null,"lng":83.77891,"lat":18.36283}},{"type":"Feature","id":"rs-undi-rtss","geometry":{"type":"Point","coordinates":[81.49494,16.5623]},"properties":{"id":"rs-undi-rtss","kind":"rail-substation","name":"Undi RTSS","displayName":"RTSS UNDI","voltage":132,"connectedSs":"220KV UNDI SS","mva":10,"circle":"Eluru","district":null,"lng":81.49494,"lat":16.5623}},{"type":"Feature","id":"rs-gudiwada-rtss","geometry":{"type":"Point","coordinates":[81.0259,16.42818]},"properties":{"id":"rs-gudiwada-rtss","kind":"rail-substation","name":"Gudiwada RTSS","displayName":"Gudiwada RTSS","voltage":132,"connectedSs":"220KV GUDIWADA SS","mva":11.5,"circle":"Vijayawada","district":null,"lng":81.0259,"lat":16.42818}},{"type":"Feature","id":"rs-s-kota-rtss","geometry":{"type":"Point","coordinates":[83.13247,18.12342]},"properties":{"id":"rs-s-kota-rtss","kind":"rail-substation","name":"S Kota RTSS","displayName":"S Kota RTSS","voltage":132,"connectedSs":"132KV TBVARA SS","mva":10,"circle":"Vizianagaram","district":null,"lng":83.13247,"lat":18.12342}},{"type":"Feature","id":"rs-samalkota-rtss","geometry":{"type":"Point","coordinates":[82.15547,17.03868]},"properties":{"id":"rs-samalkota-rtss","kind":"rail-substation","name":"Samalkota RTSS","displayName":"Samalkota Railway Traction SS","voltage":132,"connectedSs":"220KV SAMALKOT SS","mva":17,"circle":"Rajamahendravaram","district":null,"lng":82.15547,"lat":17.03868}},{"type":"Feature","id":"rs-sattenapalli-rtss","geometry":{"type":"Point","coordinates":[80.15901,16.40406]},"properties":{"id":"rs-sattenapalli-rtss","kind":"rail-substation","name":"Sattenapalli RTSS","displayName":"Sattenapalli RTSS","voltage":132,"connectedSs":"132KV RENTAPALLA SS","mva":6,"circle":"Guntur","district":null,"lng":80.15901,"lat":16.40406}},{"type":"Feature","id":"rs-savalyapuram-rtss","geometry":{"type":"Point","coordinates":[79.82217,16.10425]},"properties":{"id":"rs-savalyapuram-rtss","kind":"rail-substation","name":"Savalyapuram RTSS","displayName":"Savalyapuram RTSS","voltage":132,"connectedSs":"132KV VINUKONDA SS","mva":9,"circle":"Guntur","district":null,"lng":79.82217,"lat":16.10425}},{"type":"Feature","id":"rs-simhachalam-rtss","geometry":{"type":"Point","coordinates":[83.21097,17.75161]},"properties":{"id":"rs-simhachalam-rtss","kind":"rail-substation","name":"Simhachalam RTSS","displayName":"132KV Simhachalam Railway station","voltage":132,"connectedSs":"132KV SIMHACHALAM SS","mva":30,"circle":"Visakhapatnam","district":null,"lng":83.21097,"lat":17.75161}},{"type":"Feature","id":"rs-similiguda-rtss","geometry":{"type":"Point","coordinates":[82.95725,18.30319]},"properties":{"id":"rs-similiguda-rtss","kind":"rail-substation","name":"Similiguda RTSS","displayName":"Similiguda RTSS","voltage":132,"connectedSs":"132KV ARAKU SS","mva":13,"circle":"Visakhapatnam","district":null,"lng":82.95725,"lat":18.30319}},{"type":"Feature","id":"rs-sullurpet-rtss","geometry":{"type":"Point","coordinates":[80.01723,13.70639]},"properties":{"id":"rs-sullurpet-rtss","kind":"rail-substation","name":"Sullurpet RTSS","displayName":"Sullurpet Railway Traction SS","voltage":132,"connectedSs":"220KV SULLURUPET SS","mva":14.5,"circle":"Nellore","district":null,"lng":80.01723,"lat":13.70639}},{"type":"Feature","id":"rs-tadepalli-rtss","geometry":{"type":"Point","coordinates":[81.51064,16.81469]},"properties":{"id":"rs-tadepalli-rtss","kind":"rail-substation","name":"Tadepalli RTSS","displayName":"Tadepalli Raiway Traction SS","voltage":132,"connectedSs":"132KV PEDATADEPALLI SS","mva":16,"circle":"Eluru","district":null,"lng":81.51064,"lat":16.81469}},{"type":"Feature","id":"rs-taticherla-rtss","geometry":{"type":"Point","coordinates":[77.59287,14.75706]},"properties":{"id":"rs-taticherla-rtss","kind":"rail-substation","name":"Taticherla RTSS","displayName":"Taticherla RTSS","voltage":132,"connectedSs":"132KV TATICHERLA SS","mva":17,"circle":"Anantapur","district":null,"lng":77.59287,"lat":14.75706}},{"type":"Feature","id":"rs-tenali-rtss","geometry":{"type":"Point","coordinates":[80.6377,16.22831]},"properties":{"id":"rs-tenali-rtss","kind":"rail-substation","name":"Tenali RTSS","displayName":"Tenali RTSS","voltage":132,"connectedSs":"132KV TENALI SS","mva":15,"circle":"Guntur","district":null,"lng":80.6377,"lat":16.22831}},{"type":"Feature","id":"rs-tyda-rtss","geometry":{"type":"Point","coordinates":[83.04383,18.21862]},"properties":{"id":"rs-tyda-rtss","kind":"rail-substation","name":"Tyda RTSS","displayName":"Tyda RTSS","voltage":132,"connectedSs":"132KV ARAKU SS","mva":13.5,"circle":"Visakhapatnam","district":null,"lng":83.04383,"lat":18.21862}},{"type":"Feature","id":"rs-vatlur-rtss","geometry":{"type":"Point","coordinates":[81.04675,16.6948]},"properties":{"id":"rs-vatlur-rtss","kind":"rail-substation","name":"Vatlur RTSS","displayName":"Vatlur Railway Traction SS","voltage":132,"connectedSs":"132KV ELURU SS","mva":19,"circle":"Eluru","district":null,"lng":81.04675,"lat":16.6948}},{"type":"Feature","id":"rs-venkatagiri-rtss","geometry":{"type":"Point","coordinates":[79.60305,13.9422]},"properties":{"id":"rs-venkatagiri-rtss","kind":"rail-substation","name":"Venkatagiri RTSS","displayName":"Venkatagiri Railway Traction SS","voltage":132,"connectedSs":"132KV VENKATAGIRI SS","mva":17,"circle":"Nellore","district":null,"lng":79.60305,"lat":13.9422}},{"type":"Feature","id":"rs-vizianagaram-rtss","geometry":{"type":"Point","coordinates":[83.39421,18.10612]},"properties":{"id":"rs-vizianagaram-rtss","kind":"rail-substation","name":"Vizianagaram RTSS","displayName":"Vizianagaram RTSS","voltage":132,"connectedSs":"132KV VONTITHADI SS","mva":23,"circle":"Vizianagaram","district":null,"lng":83.39421,"lat":18.10612}},{"type":"Feature","id":"rs-koilakuntla-rtss","geometry":{"type":"Point","coordinates":[78.30389,15.22356]},"properties":{"id":"rs-koilakuntla-rtss","kind":"rail-substation","name":"Koilakuntla RTSS","displayName":"RTSS Koilakuntla","voltage":132,"connectedSs":"132KV MUDIGEDU SS","mva":10,"circle":"Kurnool","district":null,"lng":78.30389,"lat":15.22356}},{"type":"Feature","id":"rs-nallapadu-rtss","geometry":{"type":"Point","coordinates":[80.37714,16.31104]},"properties":{"id":"rs-nallapadu-rtss","kind":"rail-substation","name":"Nallapadu RTSS","displayName":"132KV RTSS Nallapadu","voltage":132,"connectedSs":"132KV NALLAPADU SS","mva":9,"circle":"Guntur","district":null,"lng":80.37714,"lat":16.31104}},{"type":"Feature","id":"rs-veldurthy-rtss","geometry":{"type":"Point","coordinates":[77.92778,15.55191]},"properties":{"id":"rs-veldurthy-rtss","kind":"rail-substation","name":"Veldurthy RTSS","displayName":"RTSS Veldurthy","voltage":220,"connectedSs":"220KV SETTYPALLI SS","mva":8,"circle":"Kurnool","district":null,"lng":77.92778,"lat":15.55191}},{"type":"Feature","id":"rs-tanuku-rtss","geometry":{"type":"Point","coordinates":[81.66914,16.7764]},"properties":{"id":"rs-tanuku-rtss","kind":"rail-substation","name":"Tanuku RTSS","displayName":"RTSS Tanuku","voltage":132,"connectedSs":"220KV SS Duvva","mva":7,"circle":"Eluru","district":null,"lng":81.66914,"lat":16.7764}},{"type":"Feature","id":"rs-kalasamudramu-rtss","geometry":{"type":"Point","coordinates":[78.09936,14.21625]},"properties":{"id":"rs-kalasamudramu-rtss","kind":"rail-substation","name":"Kalasamudramu RTSS","displayName":"132KV RTSS Kalasamudramu","voltage":132,"connectedSs":"220KV SS Muthyalacheruvu","mva":7,"circle":"Anantapur","district":null,"lng":78.09936,"lat":14.21625}},{"type":"Feature","id":"rs-kurabalakota-rtss","geometry":{"type":"Point","coordinates":[78.48607,13.66509]},"properties":{"id":"rs-kurabalakota-rtss","kind":"rail-substation","name":"Kurabalakota RTSS","displayName":"RTSS Kurabalakota","voltage":132,"connectedSs":"220KV SS Madanapalli","mva":6,"circle":"Tirupathi","district":null,"lng":78.48607,"lat":13.66509}},{"type":"Feature","id":"rs-rtss-pedana","geometry":{"type":"Point","coordinates":[81.14789,16.24523]},"properties":{"id":"rs-rtss-pedana","kind":"rail-substation","name":"RTSS Pedana","displayName":"132KV RTSS Pedana","voltage":0,"connectedSs":"132KV SS Machilipatnam","mva":0,"circle":"Vijayawada","district":"Krishna","lng":81.14789,"lat":16.24523}},{"type":"Feature","id":"rs-rajampeta-rtss","geometry":{"type":"Point","coordinates":[79.16,14.17683]},"properties":{"id":"rs-rajampeta-rtss","kind":"rail-substation","name":"Rajampeta RTSS","displayName":"RTSS Rajampeta","voltage":220,"connectedSs":"220KV SS Rajampet","mva":18,"circle":"Kadapa","district":null,"lng":79.16,"lat":14.17683}}]}