{
  "type": "FeatureCollection",
  "properties": {
    "source": "Indicative digitisation of IS 875 (Part 3) wind zones — approximate, screening only"
  },
  "features": [
    {
      "type": "Feature",
      "properties": { "vb": 50, "label": "50 m/s" },
      "geometry": {
        "type": "Polygon",
        "coordinates": [
          [
            [80.4, 13.0],
            [80.7, 14.0],
            [80.8, 15.0],
            [81.2, 15.8],
            [82.0, 16.1],
            [82.8, 16.7],
            [83.5, 17.3],
            [84.2, 17.9],
            [85.2, 18.7],
            [85.3, 19.4],
            [84.4, 19.5],
            [83.9, 18.9],
            [83.3, 18.4],
            [82.6, 17.9],
            [81.9, 17.3],
            [81.2, 16.9],
            [80.5, 16.5],
            [79.9, 15.7],
            [79.7, 14.8],
            [79.6, 13.9],
            [79.7, 13.0],
            [80.4, 13.0]
          ]
        ]
      }
    },
    {
      "type": "Feature",
      "properties": { "vb": 44, "label": "44 m/s" },
      "geometry": {
        "type": "Polygon",
        "coordinates": [
          [
            [78.3, 12.5],
            [79.5, 12.5],
            [80.5, 12.8],
            [81.0, 14.0],
            [81.5, 15.5],
            [82.5, 16.5],
            [83.5, 17.2],
            [84.5, 18.0],
            [85.4, 18.8],
            [85.4, 19.6],
            [84.0, 19.6],
            [82.5, 19.3],
            [81.0, 19.0],
            [79.5, 18.5],
            [78.3, 17.5],
            [78.3, 15.0],
            [78.3, 12.5]
          ]
        ]
      }
    },
    {
      "type": "Feature",
      "properties": { "vb": 39, "label": "39 m/s" },
      "geometry": {
        "type": "Polygon",
        "coordinates": [
          [
            [76.5, 12.4],
            [77.5, 12.4],
            [78.6, 12.4],
            [78.6, 14.0],
            [78.5, 15.5],
            [78.4, 16.5],
            [78.4, 17.6],
            [77.5, 17.6],
            [76.8, 17.0],
            [76.5, 16.5],
            [76.5, 14.5],
            [76.5, 12.4]
          ]
        ]
      }
    }
  ]
}
