{"type":"FeatureCollection","properties":{"source":"Natural Earth 10m coastline (public domain, naturalearthdata.com), clipped to the Andhra Pradesh Bay-of-Bengal coast (lng 79.5–85.5, lat 13.3–19.5), mainland segments only, simplified to ~500 m vertex spacing"},"features":[{"type":"Feature","properties":{"name":"AP Bay-of-Bengal coastline"},"geometry":{"type":"LineString","coordinates":[[80.34555,13.32123],[80.34783,13.34907],[80.34401,13.37543],[80.334,13.41303],[80.327,13.43037],[80.31373,13.42723],[80.3069,13.41303],[80.29314,13.42915],[80.27475,13.44001],[80.26238,13.45124],[80.26588,13.46825],[80.26018,13.46845],[80.25343,13.46866],[80.24342,13.47215],[80.23512,13.4781],[80.22771,13.48558],[80.21974,13.48778],[80.17596,13.48933],[80.15309,13.49421],[80.13185,13.49616],[80.1194,13.50068],[80.11207,13.51154],[80.10133,13.5371],[80.06951,13.57441],[80.05649,13.59516],[80.05299,13.61909],[80.07553,13.64838],[80.09132,13.65913],[80.0936,13.67133],[80.09401,13.69477],[80.10084,13.68627],[80.10987,13.68073],[80.11785,13.67451],[80.12127,13.66376],[80.11769,13.63886],[80.12127,13.62727],[80.13559,13.61909],[80.14178,13.64912],[80.14186,13.72895],[80.15252,13.71894],[80.1836,13.67919],[80.19728,13.64362],[80.24545,13.59174],[80.27776,13.51252],[80.3069,13.4409],[80.31373,13.4409],[80.30958,13.47932],[80.2881,13.52709],[80.25904,13.59174],[80.23805,13.66022],[80.22771,13.67707],[80.22096,13.69697],[80.22739,13.72053],[80.24545,13.7556],[80.24928,13.80028],[80.23715,13.83967],[80.16391,13.98798],[80.14967,14.02774],[80.12582,14.14851],[80.12338,14.19351],[80.13559,14.22919],[80.1211,14.24201],[80.10662,14.23404],[80.09099,14.21674],[80.0735,14.20185],[80.05063,14.19611],[80.04664,14.20661],[80.05502,14.22158],[80.07008,14.22919],[80.08717,14.25031],[80.09791,14.2543],[80.12818,14.25654],[80.13706,14.26992],[80.15943,14.32477],[80.17498,14.34455],[80.17872,14.38939],[80.17596,14.46874],[80.18824,14.5257],[80.1902,14.54759],[80.19239,14.55321],[80.19606,14.55903],[80.19695,14.56501],[80.1902,14.57123],[80.18328,14.57111],[80.15935,14.56574],[80.14918,14.56501],[80.14186,14.57123],[80.1609,14.57982],[80.16969,14.58584],[80.17596,14.59296],[80.17848,14.60578],[80.1736,14.61652],[80.16635,14.62816],[80.15984,14.66267],[80.15187,14.6728],[80.12818,14.68846],[80.11695,14.69815],[80.11069,14.70478],[80.10817,14.71434],[80.10515,14.76386],[80.07301,14.92056],[80.07342,14.94204],[80.06153,14.97468],[80.05454,15.01415],[80.05299,15.0926],[80.08237,15.20409],[80.09254,15.29658],[80.09059,15.30488],[80.12127,15.37002],[80.1268,15.38813],[80.14031,15.4064],[80.17286,15.4383],[80.18385,15.4523],[80.20045,15.48216],[80.21119,15.49665],[80.1976,15.50308],[80.20135,15.5183],[80.21746,15.54816],[80.21949,15.56745],[80.26319,15.67455],[80.27963,15.70067],[80.35963,15.77582],[80.39332,15.79702],[80.43629,15.8083],[80.44549,15.8144],[80.46144,15.82966],[80.46909,15.83466],[80.4756,15.83592],[80.48268,15.83641],[80.49187,15.83926],[80.52589,15.85692],[80.54168,15.86807],[80.55388,15.88085],[80.56072,15.88085],[80.57114,15.86872],[80.58432,15.87255],[80.60011,15.88223],[80.61842,15.88768],[80.66285,15.88935],[80.66041,15.89395],[80.6631,15.9007],[80.67018,15.9077],[80.67628,15.90717],[80.68246,15.90327],[80.69044,15.9007],[80.73634,15.89761],[80.7601,15.89297],[80.77613,15.88426],[80.80275,15.84243],[80.80836,15.80394],[80.80714,15.71638],[80.82008,15.72687],[80.83025,15.74763],[80.85572,15.8227],[80.89015,15.89525],[80.89576,15.93602],[80.89129,15.97826],[80.87534,16.0174],[80.88282,16.01146],[80.88901,16.00373],[80.8965,16.01057],[80.89226,16.02094],[80.8965,16.03107],[80.90602,15.99982],[80.90895,15.98347],[80.91017,15.96589],[80.90268,15.89082],[80.90431,15.87128],[80.91,15.85269],[80.92164,15.83861],[80.94068,15.83299],[80.94947,15.82787],[80.97902,15.80341],[80.98829,15.79121],[80.99586,15.78433],[81.00473,15.77851],[81.01254,15.77782],[81.01905,15.78417],[81.01922,15.79239],[81.01254,15.81196],[81.0088,15.81782],[81.00294,15.82526],[80.99838,15.8347],[80.99887,15.84675],[81.02687,15.88085],[81.04331,15.89411],[81.08823,15.92121],[81.1351,15.9665],[81.14975,15.96963],[81.15545,15.9855],[81.15602,16.03852],[81.16196,16.05707],[81.18002,16.08674],[81.19028,16.13886],[81.21852,16.19945],[81.23032,16.2436],[81.25416,16.27131],[81.25961,16.28864],[81.25603,16.30183],[81.24985,16.31102],[81.24855,16.32014],[81.25961,16.33271],[81.31739,16.3675],[81.33155,16.36978],[81.34523,16.3736],[81.35963,16.37433],[81.37574,16.3675],[81.38697,16.37678],[81.39894,16.38264],[81.41139,16.38251],[81.42408,16.37368],[81.42823,16.36567],[81.42612,16.35871],[81.42115,16.35098],[81.41668,16.34016],[81.47535,16.35863],[81.49586,16.36066],[81.53598,16.35004],[81.54908,16.35236],[81.54021,16.37368],[81.55698,16.37303],[81.56918,16.36758],[81.5739,16.35834],[81.56813,16.34638],[81.58497,16.34211],[81.62094,16.3395],[81.6364,16.33271],[81.65626,16.33735],[81.67693,16.32738],[81.69606,16.31493],[81.7116,16.3122],[81.71762,16.3122],[81.76295,16.32258],[81.78321,16.33857],[81.86166,16.37539],[81.88054,16.38166],[81.89991,16.38581],[81.94077,16.38837],[81.94809,16.39155],[81.95623,16.40717],[81.96795,16.40892],[81.9817,16.40786],[81.99269,16.40843],[82.00782,16.41958],[82.02272,16.43574],[82.03736,16.44766],[82.06861,16.44428],[82.09067,16.45478],[82.1229,16.47736],[82.17303,16.50092],[82.18824,16.50406],[82.20346,16.51268],[82.25904,16.5655],[82.30738,16.57978],[82.29607,16.59101],[82.28549,16.60651],[82.28094,16.62084],[82.28688,16.62816],[82.29379,16.62564],[82.29933,16.61009],[82.30397,16.60643],[82.31284,16.60814],[82.31381,16.61298],[82.31235,16.61986],[82.31422,16.62816],[82.33815,16.67841],[82.34596,16.70612],[82.35206,16.7613],[82.36557,16.81159],[82.36744,16.8603],[82.36655,16.90864],[82.36118,16.93602],[82.34889,16.95649],[82.35743,16.92487],[82.36118,16.89134],[82.36248,16.85908],[82.35206,16.8454],[82.33465,16.85407],[82.32716,16.84943],[82.31959,16.84724],[82.31422,16.84663],[82.30812,16.84955],[82.30356,16.85419],[82.29835,16.85847],[82.26791,16.8675],[82.25514,16.88532],[82.25074,16.90786],[82.2527,16.92919],[82.29168,16.99844],[82.29933,17.03034],[82.3117,17.04662],[82.34205,17.07319],[82.37037,17.11009],[82.38771,17.12694],[82.42286,17.13996],[82.43507,17.15379],[82.45192,17.18244],[82.47486,17.20596],[82.71852,17.34862],[82.75815,17.3592],[82.7964,17.38304],[82.83766,17.39277],[82.85426,17.40282],[82.86915,17.41401],[82.88331,17.42207],[82.88868,17.41014],[82.89682,17.40933],[82.94549,17.4431],[82.95281,17.44595],[82.96957,17.4501],[82.97584,17.45368],[82.99643,17.47346],[83.01987,17.49091],[83.05323,17.5065],[83.08823,17.53071],[83.1714,17.5598],[83.19614,17.57681],[83.20924,17.58369],[83.22291,17.58649],[83.23894,17.59296],[83.2339,17.60773],[83.2129,17.63491],[83.24692,17.63422],[83.25514,17.63813],[83.26824,17.64859],[83.28924,17.65762],[83.29908,17.66429],[83.2986,17.6728],[83.29249,17.67748],[83.27198,17.68814],[83.24928,17.69538],[83.24204,17.70653],[83.24692,17.71625],[83.26824,17.71748],[83.27638,17.71308],[83.28028,17.70596],[83.28224,17.69929],[83.28745,17.69538],[83.29273,17.69115],[83.2986,17.69013],[83.30437,17.69221],[83.31324,17.70116],[83.3191,17.70319],[83.34132,17.71743],[83.40235,17.78449],[83.41773,17.80622],[83.4253,17.83861],[83.43116,17.85423],[83.45297,17.86848],[83.4524,17.88622],[83.44898,17.90689],[83.45192,17.92292],[83.4629,17.90852],[83.46559,17.90249],[83.47291,17.90249],[83.48658,17.9169],[83.52613,17.94253],[83.53443,17.95332],[83.53891,17.95629],[83.55665,17.97346],[83.56284,17.9831],[83.57618,18.00975],[83.58229,18.01911],[83.61394,18.04515],[83.77516,18.13959],[84.0774,18.27155],[84.11313,18.29829],[84.12403,18.33381],[84.13282,18.34341],[84.13649,18.35358],[84.13893,18.36416],[84.14389,18.37482],[84.15284,18.38361],[84.17449,18.39985],[84.18832,18.41804],[84.23048,18.44623],[84.24008,18.46076],[84.28793,18.50576],[84.33123,18.53864],[84.34995,18.55292],[84.32618,18.53742],[84.2977,18.5163],[84.27101,18.50019],[84.24936,18.50165],[84.23764,18.51093],[84.24692,18.52558],[84.27272,18.52432],[84.28175,18.52558],[84.28859,18.52977],[84.30633,18.54369],[84.31227,18.5467],[84.33286,18.5537],[84.34946,18.56981],[84.37045,18.6013],[84.42368,18.63646],[84.43263,18.6457],[84.43719,18.66279],[84.44825,18.68065],[84.54184,18.77578],[84.54786,18.79609],[84.63087,18.91572],[84.66505,18.93012],[84.67954,18.94571],[84.69947,18.97748],[84.74106,19.02814],[84.75115,19.0539],[84.77833,19.09101],[84.78004,19.09707],[84.77524,19.10049],[84.76783,19.10179],[84.761,19.10163],[84.75685,19.09764],[84.74049,19.07368],[84.73536,19.0832],[84.72283,19.09602],[84.71998,19.10163],[84.72096,19.11424],[84.73121,19.12881],[84.73365,19.13915],[84.73878,19.14765],[84.75066,19.13837],[84.76442,19.12344],[84.77516,19.1153],[84.79103,19.12059],[84.87208,19.21987],[84.99586,19.32331],[85.06951,19.37214],[85.18043,19.475]]}}]}